{
"type": "FeatureCollection",
"name": "ChinaPV_2014",
"crs": { "type": "name", "properties": { "name": "urn:ogc:def:crs:OGC:1.3:CRS84" } },
"features": [
{ "type": "Feature", "properties": { "PV_Area": 0.0086693755375499993, "Inst_time": 20141024.0, "Inst_year": 2014, "Major_type": "Grassland", "Lat": 40.423898327400003, "Lon": 114.897182879, "Province": "河北", "Province_pinyin": "Hebei", "Province code": 13, "City": "张家口市", "City_pinyin": "Zhangjiakou", "City code": 1307, "County": "宣化县", "County_pinyin": "Xuanhua xian", "County code": 130721, "Township": "深井镇", "Township_pinyin": "shen jing zhen" }, "geometry": { "type": "Polygon", "coordinates": [ [ [ 114.897758774148201, 40.424277617118378 ], [ 114.897668941768302, 40.424187784738535 ], [ 114.897579111187042, 40.423828458816388 ], [ 114.89748927790788, 40.423648795855286 ], [ 114.897309614946835, 40.423558965274083 ], [ 114.896860459342747, 40.423379302312981 ], [ 114.896590964001803, 40.423109806972093 ], [ 114.896501133420657, 40.423019976390833 ], [ 114.896411300141494, 40.423019976390833 ], [ 114.896321468660858, 40.423109806972093 ], [ 114.896321468660858, 40.423379302312981 ], [ 114.896501133420657, 40.423558965274083 ], [ 114.896770626962962, 40.423648795855286 ], [ 114.896950289924007, 40.423738628235185 ], [ 114.89704012140453, 40.423828458816388 ], [ 114.897129952885052, 40.42391829119623 ], [ 114.897129952885052, 40.424277617118378 ], [ 114.897040122303906, 40.424277617118378 ], [ 114.897040122303906, 40.42445728007948 ], [ 114.897129952885052, 40.424547110660683 ], [ 114.89802826679113, 40.424547110660683 ], [ 114.898028267690506, 40.424277618017697 ], [ 114.897758774148201, 40.424277617118378 ] ] ] } },
{ "type": "Feature", "properties": { "PV_Area": 0.0236515999, "Inst_time": 20140819.0, "Inst_year": 2014, "Major_type": "Grassland", "Lat": 40.421373834599997, "Lon": 114.890976012, "Province": "河北", "Province_pinyin": "Hebei", "Province code": 13, "City": "张家口市", "City_pinyin": "Zhangjiakou", "City code": 1307, "County": "宣化县", "County_pinyin": "Xuanhua xian", "County code": 130721, "Township": "深井镇", "Township_pinyin": "shen jing zhen" }, "geometry": { "type": "Polygon", "coordinates": [ [ [ 114.891829892835403, 40.421582670903604 ], [ 114.891829891936027, 40.421403007942502 ], [ 114.891919725215189, 40.421403007942502 ], [ 114.891919724315926, 40.421043682020354 ], [ 114.891740062254144, 40.420684356098207 ], [ 114.891650229874244, 40.420594523718364 ], [ 114.891560398393722, 40.420504693137104 ], [ 114.891380735432676, 40.420414860757262 ], [ 114.891111240990995, 40.420414860757262 ], [ 114.891021408611209, 40.420504693137104 ], [ 114.890931578029949, 40.420594523718364 ], [ 114.890931578029949, 40.420953849640512 ], [ 114.891021408611209, 40.421043682020354 ], [ 114.891111240990995, 40.421043682020354 ], [ 114.891201071572254, 40.421223344981456 ], [ 114.891201071572254, 40.421403007942502 ], [ 114.891111240990995, 40.421492840322401 ], [ 114.89084174565005, 40.421492840322401 ], [ 114.890662082689005, 40.421403007942502 ], [ 114.890482419727959, 40.421403007942502 ], [ 114.890212927085031, 40.421403007942502 ], [ 114.890123093805755, 40.421313175562659 ], [ 114.890033263224609, 40.421133512601557 ], [ 114.88994343084471, 40.420864019059309 ], [ 114.88994343084471, 40.420594523718364 ], [ 114.889763767883665, 40.420414860757262 ], [ 114.889584104922619, 40.420414860757262 ], [ 114.889494273441983, 40.420504693137104 ], [ 114.88949427254272, 40.420953849640512 ], [ 114.889584104023243, 40.421403007942502 ], [ 114.889853599364187, 40.421672503283446 ], [ 114.890302756766914, 40.421852166244548 ], [ 114.890931577130686, 40.421852166244548 ], [ 114.891111240990995, 40.421941996825751 ], [ 114.891290903952154, 40.422031829205594 ], [ 114.891740062254144, 40.422391155127741 ], [ 114.891829893734666, 40.422480985709001 ], [ 114.892099389075611, 40.422480985709001 ], [ 114.892099389075611, 40.421941996825751 ], [ 114.891919725215189, 40.421582670903604 ], [ 114.891829892835403, 40.421582670903604 ] ] ] } },
{ "type": "Feature", "properties": { "PV_Area": 0.058243938936299998, "Inst_time": 20121031.0, "Inst_year": 2012, "Major_type": "Cropland", "Lat": 40.488919412900003, "Lon": 114.808717452, "Province": "河北", "Province_pinyin": "Hebei", "Province code": 13, "City": "张家口市", "City_pinyin": "Zhangjiakou", "City code": 1307, "County": "宣化县", "County_pinyin": "Xuanhua xian", "County code": 130721, "Township": "深井镇", "Township_pinyin": "shen jing zhen" }, "geometry": { "type": "Polygon", "coordinates": [ [ [ 114.807447714840237, 40.490976324098142 ], [ 114.807760079064451, 40.490915053287154 ], [ 114.808101761187345, 40.490934768225031 ], [ 114.808263926938707, 40.490910741937228 ], [ 114.808353269188046, 40.490885411632519 ], [ 114.808569017446302, 40.490781417628398 ], [ 114.808790561835053, 40.49060729089382 ], [ 114.808900636155499, 40.490487773691882 ], [ 114.809309502131896, 40.489887507702349 ], [ 114.809422662026236, 40.489673453766954 ], [ 114.80944298310726, 40.489592766592978 ], [ 114.809428370023284, 40.489497988841151 ], [ 114.809394760559826, 40.489443289376368 ], [ 114.809287867141393, 40.489357519234204 ], [ 114.809172577652362, 40.489304881914848 ], [ 114.809105583555947, 40.489252708645665 ], [ 114.809053479534555, 40.489157895820313 ], [ 114.809056164010826, 40.489019095355047 ], [ 114.809137540964798, 40.48880746779048 ], [ 114.809255235240926, 40.488637120007127 ], [ 114.809642905096098, 40.488144527148279 ], [ 114.809758741372889, 40.488019194929961 ], [ 114.810076895432417, 40.48778750978579 ], [ 114.810427049168993, 40.487572670742225 ], [ 114.810592571190227, 40.487439118720431 ], [ 114.810649134949699, 40.48733210569219 ], [ 114.810651328396148, 40.487264643948208 ], [ 114.810618158701118, 40.487196467243223 ], [ 114.81052851697757, 40.487124540365301 ], [ 114.81031849290423, 40.487053004692484 ], [ 114.809913467932233, 40.486991278824519 ], [ 114.80918840392178, 40.486909891078653 ], [ 114.808925318049091, 40.486904980780309 ], [ 114.808818329302539, 40.486929975637906 ], [ 114.808708841340035, 40.486983040135271 ], [ 114.808579567393167, 40.487090252812948 ], [ 114.808467745689995, 40.487263777001772 ], [ 114.808427538799947, 40.487411646230555 ], [ 114.808416004994683, 40.487762844979386 ], [ 114.808391802439814, 40.487861704753925 ], [ 114.808254996670826, 40.488201391281223 ], [ 114.808092595297126, 40.488459222415258 ], [ 114.808053701417293, 40.488566584380408 ], [ 114.808049308229101, 40.488701562726988 ], [ 114.808110824555001, 40.488986482340351 ], [ 114.808159926639405, 40.489108996982679 ], [ 114.808306064673161, 40.489330811168031 ], [ 114.808317228857049, 40.489392472284806 ], [ 114.808302995287022, 40.489445404581829 ], [ 114.808265805622455, 40.489493506620079 ], [ 114.808120743177824, 40.489583540448109 ], [ 114.807541047381505, 40.489743253748202 ], [ 114.807356638698025, 40.489864031799698 ], [ 114.807246137199513, 40.489997036134355 ], [ 114.807094962062934, 40.490291434602057 ], [ 114.807036185071979, 40.49046597502479 ], [ 114.807011022940401, 40.490695143865821 ], [ 114.807059247286475, 40.490844685833622 ], [ 114.807165689245267, 40.490943952101759 ], [ 114.807235544085188, 40.49097229603467 ], [ 114.807447714840237, 40.490976324098142 ] ] ] } },
{ "type": "Feature", "properties": { "PV_Area": 0.00539766818352, "Inst_time": 20121116.0, "Inst_year": 2012, "Major_type": "Cropland", "Lat": 40.463076624099998, "Lon": 114.80491787699999, "Province": "河北", "Province_pinyin": "Hebei", "Province code": 13, "City": "张家口市", "City_pinyin": "Zhangjiakou", "City code": 1307, "County": "宣化县", "County_pinyin": "Xuanhua xian", "County code": 130721, "Township": "深井镇", "Township_pinyin": "shen jing zhen" }, "geometry": { "type": "Polygon", "coordinates": [ [ [ 114.805024756887065, 40.462684966438076 ], [ 114.80486615424968, 40.462668441395522 ], [ 114.80472387160944, 40.462692759962977 ], [ 114.804632512180774, 40.462732653888906 ], [ 114.804520971965303, 40.46284018492662 ], [ 114.804482969313653, 40.462920539351444 ], [ 114.804460452088279, 40.463068687370082 ], [ 114.804508213283498, 40.463231712873323 ], [ 114.804559042965479, 40.46330025110575 ], [ 114.804718050297879, 40.463414038726967 ], [ 114.80489307635446, 40.463471407379586 ], [ 114.805016319447645, 40.463487260628654 ], [ 114.80515863266487, 40.463462940262559 ], [ 114.805270479549108, 40.46339484269788 ], [ 114.80534558822842, 40.463261160274385 ], [ 114.80535174228919, 40.463072165947779 ], [ 114.805303981093857, 40.462909138645898 ], [ 114.805218147099822, 40.462784674273337 ], [ 114.805164420701544, 40.462741660599193 ], [ 114.805024756887065, 40.462684966438076 ] ] ] } },
{ "type": "Feature", "properties": { "PV_Area": 0.00999806048485, "Inst_time": 20130709.0, "Inst_year": 2013, "Major_type": "Grassland", "Lat": 40.462345485900002, "Lon": 114.957827978, "Province": "河北", "Province_pinyin": "Hebei", "Province code": 13, "City": "张家口市", "City_pinyin": "Zhangjiakou", "City code": 1307, "County": "宣化县", "County_pinyin": "Xuanhua xian", "County code": 130721, "Township": "崞村镇", "Township_pinyin": "guo cun zhen" }, "geometry": { "type": "MultiPolygon", "coordinates": [ [ [ [ 114.957660950092873, 40.462266226804957 ], [ 114.957392497066166, 40.462280367744825 ], [ 114.957385652326025, 40.462171880727738 ], [ 114.95726017441757, 40.462170145036225 ], [ 114.957253330576805, 40.462254330572932 ], [ 114.95712785266835, 40.462247387806769 ], [ 114.9571267114286, 40.46231855475753 ], [ 114.957247627076413, 40.462317686911774 ], [ 114.957237360415888, 40.462720386236867 ], [ 114.957117586007826, 40.462716914853786 ], [ 114.957114164087443, 40.462888755511699 ], [ 114.957783759712811, 40.462895698277919 ], [ 114.957789945249829, 40.462770207778931 ], [ 114.957956006864265, 40.462754233121416 ], [ 114.957965133184416, 40.462670916329785 ], [ 114.958263998584698, 40.462627522242428 ], [ 114.958275405585596, 40.462417493672433 ], [ 114.958537768403403, 40.462403607240731 ], [ 114.958526361402505, 40.462341119647022 ], [ 114.958649558630327, 40.462327233215319 ], [ 114.958654120891083, 40.462164070115819 ], [ 114.958743096216949, 40.462169277190469 ], [ 114.958743096216949, 40.462105053905191 ], [ 114.958640432310176, 40.46209984593122 ], [ 114.958670091051886, 40.461849892858311 ], [ 114.958122550515327, 40.461827327968876 ], [ 114.957990228766107, 40.461945361289452 ], [ 114.957684518625683, 40.462153655067198 ], [ 114.957660950092873, 40.462266226804957 ] ] ], [ [ [ 114.956743432963094, 40.46219791789963 ], [ 114.957016062441426, 40.462180560084846 ], [ 114.957019485261071, 40.46197920907332 ], [ 114.956617955054639, 40.462007849782481 ], [ 114.956580312131791, 40.462090299627675 ], [ 114.956590577892939, 40.462164937961575 ], [ 114.956738870702338, 40.462156259503843 ], [ 114.956743432963094, 40.46219791789963 ] ] ] ] } },
{ "type": "Feature", "properties": { "PV_Area": 0.0087181796476400002, "Inst_time": 20130709.0, "Inst_year": 2013, "Major_type": "Grassland", "Lat": 40.462079020099999, "Lon": 114.95971412599999, "Province": "河北", "Province_pinyin": "Hebei", "Province code": 13, "City": "张家口市", "City_pinyin": "Zhangjiakou", "City code": 1307, "County": "宣化县", "County_pinyin": "Xuanhua xian", "County code": 130721, "Township": "崞村镇", "Township_pinyin": "guo cun zhen" }, "geometry": { "type": "Polygon", "coordinates": [ [ [ 114.960116094782052, 40.461751603253958 ], [ 114.960101854916729, 40.461737364287956 ], [ 114.960012023436207, 40.461647532807433 ], [ 114.959832358676522, 40.46155770132691 ], [ 114.959652696614739, 40.46155770132691 ], [ 114.959562865134217, 40.461647532807433 ], [ 114.959529927464246, 40.461680470477404 ], [ 114.959531326809383, 40.462024339751508 ], [ 114.959006395229039, 40.462024339751508 ], [ 114.958934043871068, 40.46209669021016 ], [ 114.958844214189185, 40.462186521690683 ], [ 114.958844213289922, 40.462276353171205 ], [ 114.958934044770444, 40.462456016132307 ], [ 114.959113706832113, 40.46254584761283 ], [ 114.959473033653694, 40.46254584761283 ], [ 114.959473033653694, 40.462456016132307 ], [ 114.959652696614739, 40.462366184651728 ], [ 114.959832359575785, 40.462276353171205 ], [ 114.960281517877775, 40.462276353171205 ], [ 114.960357975540205, 40.462199895508832 ], [ 114.960608156141575, 40.462168409344656 ], [ 114.960507773814811, 40.461822987840662 ], [ 114.960359481005298, 40.461828195814633 ], [ 114.960354918744542, 40.461741405841281 ], [ 114.960116094782052, 40.461751603253958 ] ] ] } },
{ "type": "Feature", "properties": { "PV_Area": 0.0026224256177999998, "Inst_time": 20130706.0, "Inst_year": 2013, "Major_type": "Grassland", "Lat": 40.4553233066, "Lon": 114.96025331, "Province": "河北", "Province_pinyin": "Hebei", "Province code": 13, "City": "张家口市", "City_pinyin": "Zhangjiakou", "City code": 1307, "County": "宣化县", "County_pinyin": "Xuanhua xian", "County code": 130721, "Township": "崞村镇", "Township_pinyin": "guo cun zhen" }, "geometry": { "type": "Polygon", "coordinates": [ [ [ 114.960461179939557, 40.455538989432853 ], [ 114.960461180838934, 40.45544915705301 ], [ 114.960551012319456, 40.455359325572488 ], [ 114.960640843799979, 40.455359325572488 ], [ 114.960640843799979, 40.455179662611386 ], [ 114.960551012319456, 40.455089831130863 ], [ 114.960191687296629, 40.455089831130863 ], [ 114.959832359575785, 40.455359325572488 ], [ 114.959832359575785, 40.45544915705301 ], [ 114.959922192854947, 40.455538989432853 ], [ 114.960461179939557, 40.455538989432853 ] ] ] } },
{ "type": "Feature", "properties": { "PV_Area": 0.0100269621362, "Inst_time": 20130612.0, "Inst_year": 2013, "Major_type": "Grassland", "Lat": 40.455794530399999, "Lon": 114.966425695, "Province": "河北", "Province_pinyin": "Hebei", "Province code": 13, "City": "张家口市", "City_pinyin": "Zhangjiakou", "City code": 1307, "County": "宣化县", "County_pinyin": "Xuanhua xian", "County code": 130721, "Township": "崞村镇", "Township_pinyin": "guo cun zhen" }, "geometry": { "type": "Polygon", "coordinates": [ [ [ 114.966210399190686, 40.455458184447707 ], [ 114.966296872602697, 40.455461880661289 ], [ 114.966257732308577, 40.455855817891745 ], [ 114.96627612973964, 40.455874216222128 ], [ 114.966267213860874, 40.456001760772722 ], [ 114.966121203530747, 40.456008704438204 ], [ 114.966086981628905, 40.456152787521205 ], [ 114.965977473881367, 40.45631770160071 ], [ 114.965883936294631, 40.456600657994045 ], [ 114.96568545232185, 40.456614545325067 ], [ 114.965619290997552, 40.456775986222851 ], [ 114.965617010316805, 40.456958258117197 ], [ 114.965817774970446, 40.456935690529747 ], [ 114.96608013778814, 40.456597185711587 ], [ 114.966595738002979, 40.456119804885134 ], [ 114.96731210377061, 40.455710122324319 ], [ 114.9673098221906, 40.455630267922572 ], [ 114.967576748168426, 40.455614644899981 ], [ 114.967574466588417, 40.455576453390677 ], [ 114.966912855144187, 40.455581661364647 ], [ 114.966878634141722, 40.45549486419668 ], [ 114.966669306143672, 40.455498948018089 ], [ 114.966591405968643, 40.455459997480943 ], [ 114.966616271323915, 40.454882068852442 ], [ 114.966448783384749, 40.454879058821575 ], [ 114.966156922803862, 40.454873813076063 ], [ 114.966036790465523, 40.454871653803821 ], [ 114.966044637949722, 40.454986097930146 ], [ 114.966030736229527, 40.45499999965034 ], [ 114.966030736229527, 40.455089831130863 ], [ 114.96612056591141, 40.455179662611386 ], [ 114.966210399190686, 40.455179662611386 ], [ 114.966210399190686, 40.455458184447707 ] ] ] } },
{ "type": "Feature", "properties": { "PV_Area": 0.00288856803563, "Inst_time": 20140725.0, "Inst_year": 2014, "Major_type": "Grassland", "Lat": 40.452886988700001, "Lon": 114.96802830599999, "Province": "河北", "Province_pinyin": "Hebei", "Province code": 13, "City": "张家口市", "City_pinyin": "Zhangjiakou", "City code": 1307, "County": "宣化县", "County_pinyin": "Xuanhua xian", "County code": 130721, "Township": "崞村镇", "Township_pinyin": "guo cun zhen" }, "geometry": { "type": "Polygon", "coordinates": [ [ [ 114.968096861181266, 40.453203369140226 ], [ 114.968276524142311, 40.453113537659704 ], [ 114.968366354723571, 40.452933873799282 ], [ 114.968366355622834, 40.452844043218079 ], [ 114.968276524142311, 40.452754210838236 ], [ 114.968096861181266, 40.452574547877134 ], [ 114.967917198220221, 40.452574547877134 ], [ 114.967737536158438, 40.452664380256977 ], [ 114.967737535259062, 40.453023706179124 ], [ 114.967827365840321, 40.453113537659704 ], [ 114.968007028801367, 40.453203369140226 ], [ 114.968096861181266, 40.453203369140226 ] ] ] } },
{ "type": "Feature", "properties": { "PV_Area": 0.00045620761055899998, "Inst_time": 20141021.0, "Inst_year": 2014, "Major_type": "Grassland", "Lat": 40.435192147400002, "Lon": 114.886529833, "Province": "河北", "Province_pinyin": "Hebei", "Province code": 13, "City": "张家口市", "City_pinyin": "Zhangjiakou", "City code": 1307, "County": "宣化县", "County_pinyin": "Xuanhua xian", "County code": 130721, "Township": "崞村镇", "Township_pinyin": "guo cun zhen" }, "geometry": { "type": "Polygon", "coordinates": [ [ [ 114.886619665165426, 40.435057400178948 ], [ 114.886440002204381, 40.435057400178948 ], [ 114.886440001305118, 40.435326894620516 ], [ 114.886619664266163, 40.435326894620516 ], [ 114.886619665165426, 40.435057400178948 ] ] ] } },
{ "type": "Feature", "properties": { "PV_Area": 0.0057786313647500004, "Inst_time": 20141021.0, "Inst_year": 2014, "Major_type": "Grassland", "Lat": 40.435215984400003, "Lon": 114.88804179900001, "Province": "河北", "Province_pinyin": "Hebei", "Province code": 13, "City": "张家口市", "City_pinyin": "Zhangjiakou", "City code": 1307, "County": "宣化县", "County_pinyin": "Xuanhua xian", "County code": 130721, "Township": "崞村镇", "Township_pinyin": "guo cun zhen" }, "geometry": { "type": "Polygon", "coordinates": [ [ [ 114.888416294776221, 40.43568622144204 ], [ 114.888416294776221, 40.435596389062141 ], [ 114.888506126256743, 40.435506557581618 ], [ 114.888595956838003, 40.435506557581618 ], [ 114.888595957737266, 40.435326894620516 ], [ 114.888506126256743, 40.435147231659471 ], [ 114.888416294776221, 40.435057400178948 ], [ 114.888326462396435, 40.434967568698369 ], [ 114.888146800334653, 40.434877737217846 ], [ 114.88751797997088, 40.434877737217846 ], [ 114.887428147590981, 40.434967568698369 ], [ 114.887428146691718, 40.435237063139994 ], [ 114.887607810552026, 40.435326894620516 ], [ 114.887787474412448, 40.435326894620516 ], [ 114.88796713827287, 40.435416726101096 ], [ 114.88805696885413, 40.435506557581618 ], [ 114.888146800334653, 40.435596389062141 ], [ 114.888146800334653, 40.43568622144204 ], [ 114.888416294776221, 40.43568622144204 ] ] ] } },
{ "type": "Feature", "properties": { "PV_Area": 0.013496271655400001, "Inst_time": 20140428.0, "Inst_year": 2014, "Major_type": "Grassland", "Lat": 40.434628402000001, "Lon": 114.912619861, "Province": "河北", "Province_pinyin": "Hebei", "Province code": 13, "City": "张家口市", "City_pinyin": "Zhangjiakou", "City code": 1307, "County": "宣化县", "County_pinyin": "Xuanhua xian", "County code": 130721, "Township": "崞村镇", "Township_pinyin": "guo cun zhen" }, "geometry": { "type": "Polygon", "coordinates": [ [ [ 114.912580975631613, 40.43568622144204 ], [ 114.912760638592658, 40.435596389062141 ], [ 114.912760638592658, 40.435237063139994 ], [ 114.912670808011399, 40.435057400178948 ], [ 114.912760638592658, 40.434698074256801 ], [ 114.913119965414126, 40.434248916854074 ], [ 114.913479290436953, 40.433889590931926 ], [ 114.91347929133633, 40.433620095590982 ], [ 114.913389459855694, 40.433530264110459 ], [ 114.913030133034226, 40.433530264110459 ], [ 114.912940301553704, 40.433620095590982 ], [ 114.912850470972558, 40.433709927071504 ], [ 114.912760638592658, 40.433889590032607 ], [ 114.912760639492035, 40.434069253893028 ], [ 114.912670808011399, 40.434248916854074 ], [ 114.91249114415109, 40.434338748334596 ], [ 114.912131818228886, 40.434428579815176 ], [ 114.912041987647626, 40.434518411295699 ], [ 114.911952156167104, 40.434608242776221 ], [ 114.911952155267841, 40.434787905737323 ], [ 114.911952154368464, 40.434877737217846 ], [ 114.912041985848987, 40.435506557581618 ], [ 114.912131817329623, 40.435596389062141 ], [ 114.912221649709409, 40.435596389062141 ], [ 114.912491145050353, 40.435596389062141 ], [ 114.912491145050353, 40.43568622144204 ], [ 114.912580975631613, 40.43568622144204 ] ] ] } },
{ "type": "Feature", "properties": { "PV_Area": 0.0012546014822600001, "Inst_time": 20141005.0, "Inst_year": 2014, "Major_type": "Grassland", "Lat": 40.433714463999998, "Lon": 114.892597544, "Province": "河北", "Province_pinyin": "Hebei", "Province code": 13, "City": "张家口市", "City_pinyin": "Zhangjiakou", "City code": 1307, "County": "宣化县", "County_pinyin": "Xuanhua xian", "County code": 130721, "Township": "崞村镇", "Township_pinyin": "guo cun zhen" }, "geometry": { "type": "Polygon", "coordinates": [ [ [ 114.892728208540007, 40.433889590032607 ], [ 114.892818040020643, 40.433799758552084 ], [ 114.892818040020643, 40.433620095590982 ], [ 114.89263837795886, 40.433530264110459 ], [ 114.892548544679698, 40.433530264110459 ], [ 114.892368881718539, 40.433620095590982 ], [ 114.892368881718539, 40.433799758552084 ], [ 114.892548544679698, 40.433889590032607 ], [ 114.892728208540007, 40.433889590032607 ] ] ] } },
{ "type": "Feature", "properties": { "PV_Area": 0.0088582073106899997, "Inst_time": 20141005.0, "Inst_year": 2014, "Major_type": "Grassland", "Lat": 40.4339271168, "Lon": 114.891973444, "Province": "河北", "Province_pinyin": "Hebei", "Province code": 13, "City": "张家口市", "City_pinyin": "Zhangjiakou", "City code": 1307, "County": "宣化县", "County_pinyin": "Xuanhua xian", "County code": 130721, "Township": "崞村镇", "Township_pinyin": "guo cun zhen" }, "geometry": { "type": "Polygon", "coordinates": [ [ [ 114.892189219656871, 40.434877737217846 ], [ 114.892189218757494, 40.434787905737323 ], [ 114.892279051137393, 40.434698074256801 ], [ 114.892458714098439, 40.434698074256801 ], [ 114.892548545578961, 40.434608242776221 ], [ 114.892548545578961, 40.434338747435277 ], [ 114.892458714997815, 40.434248916854074 ], [ 114.892279051137393, 40.434159086272871 ], [ 114.892189218757494, 40.433799758552084 ], [ 114.892189218757494, 40.433709927071504 ], [ 114.892099388176234, 40.433350601149357 ], [ 114.892009556695712, 40.433170938188312 ], [ 114.891829891936027, 40.433081106707789 ], [ 114.891650229874244, 40.433081106707789 ], [ 114.891560398393722, 40.433170938188312 ], [ 114.891470566913199, 40.433260769668834 ], [ 114.891380735432676, 40.433350601149357 ], [ 114.891380735432676, 40.433530264110459 ], [ 114.891560398393722, 40.433799758552084 ], [ 114.891829892835403, 40.433889590032607 ], [ 114.892009555796449, 40.433979422412449 ], [ 114.892009555796449, 40.434248916854074 ], [ 114.891919725215189, 40.434338748334596 ], [ 114.891829892835403, 40.434338748334596 ], [ 114.891829892835403, 40.434608242776221 ], [ 114.892009555796449, 40.434787905737323 ], [ 114.892099387276971, 40.434877737217846 ], [ 114.892189219656871, 40.434877737217846 ] ] ] } },
{ "type": "Feature", "properties": { "PV_Area": 0.051192800975000001, "Inst_time": 20140629.0, "Inst_year": 2014, "Major_type": "Grassland", "Lat": 40.429304435900001, "Lon": 114.94575857, "Province": "河北", "Province_pinyin": "Hebei", "Province code": 13, "City": "张家口市", "City_pinyin": "Zhangjiakou", "City code": 1307, "County": "宣化县", "County_pinyin": "Xuanhua xian", "County code": 130721, "Township": "崞村镇", "Township_pinyin": "guo cun zhen" }, "geometry": { "type": "Polygon", "coordinates": [ [ [ 114.947348318070453, 40.430592026101181 ], [ 114.947393095315192, 40.430589482818448 ], [ 114.947436606314341, 40.430611238318022 ], [ 114.9476518536502, 40.430619074111007 ], [ 114.947670789775202, 40.430600138885382 ], [ 114.948549719693915, 40.430600138885382 ], [ 114.948538311793754, 40.430502888897252 ], [ 114.948793830770683, 40.430511571851639 ], [ 114.948777861509143, 40.430469893670704 ], [ 114.948670634442237, 40.430390009591349 ], [ 114.948522342532101, 40.430376116864352 ], [ 114.948515497792073, 40.430188563251647 ], [ 114.948442492627009, 40.430058318037027 ], [ 114.948168722808418, 40.430060054627859 ], [ 114.948113968484904, 40.430292759603219 ], [ 114.947769474181996, 40.430292759603219 ], [ 114.94775350402108, 40.430040952128309 ], [ 114.948009022998122, 40.430028795092881 ], [ 114.947997615997224, 40.429813455126919 ], [ 114.94786985650876, 40.429808245354309 ], [ 114.947847042507078, 40.42969015537642 ], [ 114.947577834949129, 40.429686682194699 ], [ 114.947586960370018, 40.42980650876342 ], [ 114.947404355726462, 40.429805508717322 ], [ 114.947406729037425, 40.429726624684008 ], [ 114.94700291725087, 40.429438344304174 ], [ 114.946617358104618, 40.429091018036104 ], [ 114.946243205059886, 40.429068442354776 ], [ 114.946229516479093, 40.429155273696949 ], [ 114.946081224568957, 40.429158746878727 ], [ 114.946082757913018, 40.429308181827196 ], [ 114.946003068986556, 40.429308181827196 ], [ 114.945996812402996, 40.429068442354776 ], [ 114.945766389007758, 40.429071915536554 ], [ 114.945761825847626, 40.428960770123467 ], [ 114.945538247192417, 40.428950350578248 ], [ 114.945501744609942, 40.428043818667334 ], [ 114.945367598136158, 40.428048655221289 ], [ 114.945099988673633, 40.427781046658026 ], [ 114.945010158991749, 40.427691215177504 ], [ 114.944920325712474, 40.427421719836559 ], [ 114.944830495131328, 40.427331889255356 ], [ 114.944381336829338, 40.427331889255356 ], [ 114.944291506248078, 40.427421719836559 ], [ 114.944201673868179, 40.427511552216401 ], [ 114.944113623944645, 40.427951806330839 ], [ 114.943688017088334, 40.427953511445423 ], [ 114.943612730343261, 40.428064658657149 ], [ 114.943605885603233, 40.428160174752293 ], [ 114.943469000693881, 40.428170594297569 ], [ 114.9434735638539, 40.428575235258961 ], [ 114.94424696462579, 40.428575235258961 ], [ 114.94423555672563, 40.428231377676013 ], [ 114.94456762149855, 40.42823682576892 ], [ 114.944650832170282, 40.428320036440596 ], [ 114.944726760131971, 40.428471895961309 ], [ 114.944732906098807, 40.429381035906147 ], [ 114.944869791907422, 40.429374089542648 ], [ 114.944883479588952, 40.429726624684008 ], [ 114.944748876259723, 40.429728361274897 ], [ 114.94476484642064, 40.430063527809637 ], [ 114.944630242192034, 40.430063527809637 ], [ 114.944641649192818, 40.430725173428073 ], [ 114.94518690904863, 40.430716490473685 ], [ 114.945182345888611, 40.430612295021433 ], [ 114.945307823797066, 40.430610558430601 ], [ 114.945303260637047, 40.430384799818682 ], [ 114.945428738545502, 40.430379590046073 ], [ 114.945426457864755, 40.429968014412395 ], [ 114.945282728215375, 40.429973224185005 ], [ 114.945278165055356, 40.429648476296222 ], [ 114.946088069308985, 40.429634583569225 ], [ 114.946195295476514, 40.429733571047507 ], [ 114.946537294160862, 40.429728815432554 ], [ 114.946537293261486, 40.429847172509085 ], [ 114.946627124742122, 40.43002683457081 ], [ 114.946716957121907, 40.430116666051333 ], [ 114.946896620083066, 40.430206498431232 ], [ 114.947166116323274, 40.430206498431232 ], [ 114.947255946005157, 40.430296329012435 ], [ 114.947255946005157, 40.430475991973481 ], [ 114.94730345539017, 40.43052350135855 ], [ 114.946473628455237, 40.430516781624249 ], [ 114.946485035456135, 40.430706070928466 ], [ 114.946615076524608, 40.430699124565024 ], [ 114.946624201945383, 40.430775534563338 ], [ 114.946747399173205, 40.430779007745059 ], [ 114.946742836013186, 40.431020393876111 ], [ 114.947089611896104, 40.43101171092178 ], [ 114.947094174156859, 40.430853681152541 ], [ 114.947187712642858, 40.430858890925151 ], [ 114.947349693133901, 40.430761641836341 ], [ 114.947348318070453, 40.430592026101181 ] ] ] } },
{ "type": "Feature", "properties": { "PV_Area": 0.0101138939478, "Inst_time": 20141013.0, "Inst_year": 2014, "Major_type": "Grassland", "Lat": 40.42656258, "Lon": 114.808144958, "Province": "河北", "Province_pinyin": "Hebei", "Province code": 13, "City": "张家口市", "City_pinyin": "Zhangjiakou", "City code": 1307, "County": "宣化县", "County_pinyin": "Xuanhua xian", "County code": 130721, "Township": "深井镇", "Township_pinyin": "shen jing zhen" }, "geometry": { "type": "Polygon", "coordinates": [ [ [ 114.808556067208769, 40.426972563333209 ], [ 114.808735728371175, 40.426882730953309 ], [ 114.808825560751075, 40.426792900372106 ], [ 114.80900522371212, 40.426613237411004 ], [ 114.80900522371212, 40.426253910589537 ], [ 114.808825560751075, 40.426164079109014 ], [ 114.808556066309507, 40.426164079109014 ], [ 114.808556066309507, 40.426253910589537 ], [ 114.808376403348348, 40.426343742070117 ], [ 114.807837413565835, 40.426343742070117 ], [ 114.80765775060479, 40.426253910589537 ], [ 114.80765775060479, 40.426164079109014 ], [ 114.807388257062485, 40.426164079109014 ], [ 114.807298423783323, 40.426253910589537 ], [ 114.807208594101439, 40.426343742070117 ], [ 114.807208593202063, 40.426613237411004 ], [ 114.807298424682585, 40.426703067992264 ], [ 114.80765775060479, 40.426792900372106 ], [ 114.807837413565835, 40.426882730953309 ], [ 114.808017077426257, 40.426972563333209 ], [ 114.808556067208769, 40.426972563333209 ] ] ] } },
{ "type": "Feature", "properties": { "PV_Area": 0.0040684632895300003, "Inst_time": 20141013.0, "Inst_year": 2014, "Major_type": "Grassland", "Lat": 40.425044682900001, "Lon": 114.892837069, "Province": "河北", "Province_pinyin": "Hebei", "Province code": 13, "City": "张家口市", "City_pinyin": "Zhangjiakou", "City code": 1307, "County": "宣化县", "County_pinyin": "Xuanhua xian", "County code": 130721, "Township": "深井镇", "Township_pinyin": "shen jing zhen" }, "geometry": { "type": "Polygon", "coordinates": [ [ [ 114.892997702981688, 40.425625090225765 ], [ 114.893087533562834, 40.425445427264719 ], [ 114.893087533562834, 40.425265764303617 ], [ 114.892997702981688, 40.424547110660683 ], [ 114.892728207640744, 40.424547110660683 ], [ 114.892638377059484, 40.424636943040525 ], [ 114.892548544679698, 40.424816606001627 ], [ 114.892548544679698, 40.424996268962673 ], [ 114.892548545578961, 40.425086101342572 ], [ 114.892638377059484, 40.425265764303617 ], [ 114.892907869702526, 40.425625090225765 ], [ 114.892997702981688, 40.425625090225765 ] ] ] } },
{ "type": "Feature", "properties": { "PV_Area": 0.0012927931701399999, "Inst_time": 20100828.0, "Inst_year": 2010, "Major_type": "Grassland", "Lat": 40.424473132400003, "Lon": 114.80069140400001, "Province": "河北", "Province_pinyin": "Hebei", "Province code": 13, "City": "张家口市", "City_pinyin": "Zhangjiakou", "City code": 1307, "County": "宣化县", "County_pinyin": "Xuanhua xian", "County code": 130721, "Township": "深井镇", "Township_pinyin": "shen jing zhen" }, "geometry": { "type": "Polygon", "coordinates": [ [ [ 114.800740723006015, 40.424367447699581 ], [ 114.800740723905392, 40.424277617118378 ], [ 114.80056106004497, 40.424277617118378 ], [ 114.800471228564447, 40.424367447699581 ], [ 114.800471228564447, 40.424547110660683 ], [ 114.80056106004497, 40.424636943040525 ], [ 114.800920385967061, 40.424636943040525 ], [ 114.800920385967061, 40.424367447699581 ], [ 114.800740723006015, 40.424367447699581 ] ] ] } },
{ "type": "Feature", "properties": { "PV_Area": 0.016311854291900001, "Inst_time": 20140815.0, "Inst_year": 2014, "Major_type": "Grassland", "Lat": 40.425095034999998, "Lon": 114.899523437, "Province": "河北", "Province_pinyin": "Hebei", "Province code": 13, "City": "张家口市", "City_pinyin": "Zhangjiakou", "City code": 1307, "County": "宣化县", "County_pinyin": "Xuanhua xian", "County code": 130721, "Township": "深井镇", "Township_pinyin": "shen jing zhen" }, "geometry": { "type": "Polygon", "coordinates": [ [ [ 114.899645236138781, 40.425714920807025 ], [ 114.899645236138781, 40.425625090225765 ], [ 114.900453720362975, 40.425625090225765 ], [ 114.900453720362975, 40.42535559488482 ], [ 114.90027405740193, 40.425265764303617 ], [ 114.900184225022031, 40.425175931923775 ], [ 114.900184225022031, 40.42445728007948 ], [ 114.900094394440771, 40.424367447699581 ], [ 114.900004561161609, 40.424277617118378 ], [ 114.899824899999203, 40.424277617118378 ], [ 114.89973506851868, 40.424367447699581 ], [ 114.899735067619304, 40.424816606001627 ], [ 114.899465573177736, 40.424816606001627 ], [ 114.899375740797836, 40.424726775420424 ], [ 114.89928591021669, 40.424636943040525 ], [ 114.899106247255531, 40.424367447699581 ], [ 114.898926583395223, 40.424367447699581 ], [ 114.898746921333441, 40.42445728007948 ], [ 114.898746921333441, 40.424816606001627 ], [ 114.898836751914587, 40.424816606001627 ], [ 114.898836751914587, 40.425265764303617 ], [ 114.898746920434064, 40.425445427264719 ], [ 114.898746921333441, 40.425625090225765 ], [ 114.898836751914587, 40.425714920807025 ], [ 114.899645236138781, 40.425714920807025 ] ] ] } },
{ "type": "Feature", "properties": { "PV_Area": 0.0110267121616, "Inst_time": 20140907.0, "Inst_year": 2014, "Major_type": "Grassland", "Lat": 40.42474567, "Lon": 114.94556979799999, "Province": "河北", "Province_pinyin": "Hebei", "Province code": 13, "City": "张家口市", "City_pinyin": "Zhangjiakou", "City code": 1307, "County": "宣化县", "County_pinyin": "Xuanhua xian", "County code": 130721, "Township": "崞村镇", "Township_pinyin": "guo cun zhen" }, "geometry": { "type": "Polygon", "coordinates": [ [ [ 114.945818642316567, 40.425714920807025 ], [ 114.945908472897713, 40.425625090225765 ], [ 114.945908472897713, 40.42490643838147 ], [ 114.945998305277612, 40.42490643838147 ], [ 114.945998305277612, 40.42445728007948 ], [ 114.945818642316567, 40.424097954157332 ], [ 114.945728809037405, 40.424008121777433 ], [ 114.945638979355522, 40.42391829119623 ], [ 114.945279651634678, 40.42391829119623 ], [ 114.945099988673633, 40.424008121777433 ], [ 114.945010158092373, 40.424097954157332 ], [ 114.945010158991749, 40.424277617118378 ], [ 114.945099987774256, 40.424367447699581 ], [ 114.945279651634678, 40.424367447699581 ], [ 114.945369484014577, 40.42445728007948 ], [ 114.945369484014577, 40.424726775420424 ], [ 114.945279652534055, 40.424726775420424 ], [ 114.945189821053418, 40.42490643838147 ], [ 114.945189821053418, 40.425175931923775 ], [ 114.945279651634678, 40.42535559488482 ], [ 114.945369484014577, 40.425445427264719 ], [ 114.945549146975623, 40.425535257845922 ], [ 114.945549146975623, 40.425625090225765 ], [ 114.945638980254785, 40.425714920807025 ], [ 114.945818642316567, 40.425714920807025 ] ] ] } },
{ "type": "Feature", "properties": { "PV_Area": 0.0014070307182300001, "Inst_time": 20140628.0, "Inst_year": 2014, "Major_type": "Grassland", "Lat": 40.416314982599999, "Lon": 114.940730616, "Province": "河北", "Province_pinyin": "Hebei", "Province code": 13, "City": "张家口市", "City_pinyin": "Zhangjiakou", "City code": 1307, "County": "宣化县", "County_pinyin": "Xuanhua xian", "County code": 130721, "Township": "深井镇", "Township_pinyin": "shen jing zhen" }, "geometry": { "type": "Polygon", "coordinates": [ [ [ 114.940788074909847, 40.416552105295466 ], [ 114.940877908189009, 40.416462273814943 ], [ 114.940967738770155, 40.416372442334421 ], [ 114.940967738770155, 40.416282610853841 ], [ 114.940877908189009, 40.416192779373318 ], [ 114.94078807580911, 40.416102947892796 ], [ 114.940608413747327, 40.416102947892796 ], [ 114.940518581367542, 40.416192779373318 ], [ 114.940518580468165, 40.416372442334421 ], [ 114.940608412848064, 40.416462273814943 ], [ 114.940698244328587, 40.416552105295466 ], [ 114.940788074909847, 40.416552105295466 ] ] ] } },
{ "type": "Feature", "properties": { "PV_Area": 0.016740147539000001, "Inst_time": 20140823.0, "Inst_year": 2014, "Major_type": "Grassland", "Lat": 40.415151508400001, "Lon": 114.92939593200001, "Province": "河北", "Province_pinyin": "Hebei", "Province code": 13, "City": "张家口市", "City_pinyin": "Zhangjiakou", "City code": 1307, "County": "宣化县", "County_pinyin": "Xuanhua xian", "County code": 130721, "Township": "深井镇", "Township_pinyin": "shen jing zhen" }, "geometry": { "type": "Polygon", "coordinates": [ [ [ 114.929053874636679, 40.414665643304829 ], [ 114.928840482602254, 40.414665643304829 ], [ 114.928840483501517, 40.414755474785409 ], [ 114.928750650222355, 40.414845306265931 ], [ 114.928481157579427, 40.415024969226977 ], [ 114.928121829858583, 40.415204633087399 ], [ 114.9280320001767, 40.415294463668602 ], [ 114.9280320001767, 40.415384296048501 ], [ 114.928211662238482, 40.415563959009546 ], [ 114.928660818741832, 40.415563959009546 ], [ 114.928660819641209, 40.415552195877183 ], [ 114.929176610512172, 40.415566907886557 ], [ 114.929191884597913, 40.415668084314689 ], [ 114.929426870253906, 40.415744511400135 ], [ 114.929837525881226, 40.415716719650959 ], [ 114.929896842465382, 40.415642029156345 ], [ 114.930088481698135, 40.415642029156345 ], [ 114.930097608018286, 40.415563864580747 ], [ 114.930186583344152, 40.415562127989858 ], [ 114.930191145604908, 40.415417957672673 ], [ 114.930556172329602, 40.415409272919646 ], [ 114.930551610068846, 40.415454435074196 ], [ 114.931055803282788, 40.415456171665028 ], [ 114.931048959442023, 40.415334582425089 ], [ 114.93074096772159, 40.415351951931086 ], [ 114.930743249301599, 40.415272050764599 ], [ 114.930836786888221, 40.415261628521364 ], [ 114.930834506207589, 40.415200834351083 ], [ 114.930622333653787, 40.415207781613901 ], [ 114.930877852630829, 40.414886436759673 ], [ 114.930877852630829, 40.414863855682427 ], [ 114.930727279140683, 40.414862119091595 ], [ 114.930524232907032, 40.415093140536044 ], [ 114.93041928742025, 40.415272050764599 ], [ 114.930378222577019, 40.415292894351637 ], [ 114.930366814676859, 40.415350215340197 ], [ 114.929823837300319, 40.415362374174265 ], [ 114.929828400460337, 40.415239047444118 ], [ 114.929707484812639, 40.415233836772188 ], [ 114.929693796231732, 40.41515567219659 ], [ 114.929577444643428, 40.415162620358672 ], [ 114.929568318323277, 40.415032345466443 ], [ 114.929451966734973, 40.415020186632375 ], [ 114.929454247415606, 40.414799586531728 ], [ 114.929823837300319, 40.414794375859799 ], [ 114.929828400460337, 40.41462067540391 ], [ 114.930188864024899, 40.414624149484951 ], [ 114.930702183558992, 40.414358386330491 ], [ 114.930697620398973, 40.414294116280473 ], [ 114.930177457024115, 40.414316697357776 ], [ 114.930161487762462, 40.414420918890357 ], [ 114.929691515551099, 40.414545984010033 ], [ 114.929682389230948, 40.414608515670523 ], [ 114.929052718108551, 40.414585934593276 ], [ 114.929053874636679, 40.414665643304829 ] ] ] } },
{ "type": "Feature", "properties": { "PV_Area": 0.0035746868395299999, "Inst_time": 20140822.0, "Inst_year": 2014, "Major_type": "Grassland", "Lat": 40.415012545899998, "Lon": 114.931414061, "Province": "河北", "Province_pinyin": "Hebei", "Province code": 13, "City": "张家口市", "City_pinyin": "Zhangjiakou", "City code": 1307, "County": "宣化县", "County_pinyin": "Xuanhua xian", "County code": 130721, "Township": "深井镇", "Township_pinyin": "shen jing zhen" }, "geometry": { "type": "Polygon", "coordinates": [ [ [ 114.931445596437243, 40.415384296048501 ], [ 114.931535428817028, 40.415204633087399 ], [ 114.931715090878811, 40.415114800707556 ], [ 114.93180492325871, 40.414935137746454 ], [ 114.931804924157973, 40.414845306265931 ], [ 114.931715091778074, 40.414755474785409 ], [ 114.931625259398288, 40.414665643304829 ], [ 114.931355764956606, 40.414665643304829 ], [ 114.931176101995561, 40.414845306265931 ], [ 114.931086271414301, 40.414935137746454 ], [ 114.931086271414301, 40.415294463668602 ], [ 114.931176101995561, 40.415384296048501 ], [ 114.931445596437243, 40.415384296048501 ] ] ] } },
{ "type": "Feature", "properties": { "PV_Area": 0.035318015505099998, "Inst_time": 20140628.0, "Inst_year": 2014, "Major_type": "Grassland", "Lat": 40.415416584799999, "Lon": 114.938244025, "Province": "河北", "Province_pinyin": "Hebei", "Province code": 13, "City": "张家口市", "City_pinyin": "Zhangjiakou", "City code": 1307, "County": "宣化县", "County_pinyin": "Xuanhua xian", "County code": 130721, "Township": "深井镇", "Township_pinyin": "shen jing zhen" }, "geometry": { "type": "Polygon", "coordinates": [ [ [ 114.939489457472519, 40.416690790647522 ], [ 114.939825575489976, 40.416689421879369 ], [ 114.939818731649211, 40.416762373984398 ], [ 114.939889761003769, 40.41676148815219 ], [ 114.940097064627935, 40.416758900802677 ], [ 114.940093138187876, 40.416594507430602 ], [ 114.940087938307784, 40.416376768972782 ], [ 114.940026340143504, 40.416369821709964 ], [ 114.94001493314272, 40.416255181531483 ], [ 114.940222069492961, 40.416260394901371 ], [ 114.940221255606502, 40.416075115674118 ], [ 114.94022026095638, 40.415848730234757 ], [ 114.94002122390043, 40.415875084867309 ], [ 114.9400208380913, 40.415874698158859 ], [ 114.939857515811809, 40.415885206736959 ], [ 114.939830138649995, 40.41577751382124 ], [ 114.939697816001512, 40.415772303149311 ], [ 114.939690898416302, 40.415616933574654 ], [ 114.939684127420605, 40.415464856418055 ], [ 114.939430890023573, 40.415308527266745 ], [ 114.939275753373408, 40.415313738838051 ], [ 114.939290248646103, 40.415474126629704 ], [ 114.938811782337893, 40.415474126629704 ], [ 114.938721949958108, 40.415384296048501 ], [ 114.938632119376848, 40.415294463668602 ], [ 114.938542287896325, 40.415114800707556 ], [ 114.938452455516426, 40.414665643304829 ], [ 114.93836262493528, 40.414575811824307 ], [ 114.938272792555381, 40.414485980343784 ], [ 114.938003298113813, 40.414485980343784 ], [ 114.938003299013076, 40.414575811824307 ], [ 114.937643973990248, 40.414575810924987 ], [ 114.937554139811709, 40.414485980343784 ], [ 114.937464309230563, 40.414396148863204 ], [ 114.937374478649303, 40.414216485902159 ], [ 114.937194814788882, 40.414126654421636 ], [ 114.937015151827836, 40.414126654421636 ], [ 114.936835488866791, 40.414306317382682 ], [ 114.936296499983541, 40.414396148863204 ], [ 114.936206667603642, 40.414485980343784 ], [ 114.936206667603642, 40.414665644204149 ], [ 114.936296499983541, 40.414755474785409 ], [ 114.936363079492594, 40.414810957559723 ], [ 114.936636152336632, 40.414794375859799 ], [ 114.936636152336632, 40.415038519312247 ], [ 114.936641682267918, 40.415043126539103 ], [ 114.936608776074195, 40.415247733096464 ], [ 114.936501549007289, 40.415247733096464 ], [ 114.936508392848168, 40.415360637583433 ], [ 114.937544157337015, 40.415341530587227 ], [ 114.937555963636896, 40.415114800707556 ], [ 114.937564689758688, 40.414947231829331 ], [ 114.938046068970948, 40.414909017836976 ], [ 114.938050983765947, 40.415389834073608 ], [ 114.938093129594336, 40.415474126629704 ], [ 114.938093129594336, 40.415813062223094 ], [ 114.937790549993906, 40.415817464404483 ], [ 114.937797394734048, 40.416236075434597 ], [ 114.937918309482484, 40.416236075434597 ], [ 114.937927435802635, 40.416461880811198 ], [ 114.93821261262201, 40.416461880811198 ], [ 114.938351779111372, 40.416383717134863 ], [ 114.938374593113053, 40.416321186373693 ], [ 114.938579920926713, 40.416321186373693 ], [ 114.938579920926713, 40.416248234268664 ], [ 114.938459006178277, 40.416241286106526 ], [ 114.938464192568517, 40.4161419955567 ], [ 114.938542287896325, 40.416102948792116 ], [ 114.938542287896325, 40.416013116412273 ], [ 114.93890161381853, 40.416013116412273 ], [ 114.939081275880199, 40.416102947892796 ], [ 114.93926093974062, 40.416192779373318 ], [ 114.93935077212052, 40.416282610853841 ], [ 114.939440602701666, 40.416372442334421 ], [ 114.939440603601042, 40.416641936775989 ], [ 114.939489457472519, 40.416690790647522 ] ] ] } },
{ "type": "Feature", "properties": { "PV_Area": 0.00015211693233499999, "Inst_time": 20140628.0, "Inst_year": 2014, "Major_type": "Grassland", "Lat": 40.413408001800001, "Lon": 114.93697023599999, "Province": "河北", "Province_pinyin": "Hebei", "Province code": 13, "City": "张家口市", "City_pinyin": "Zhangjiakou", "City code": 1307, "County": "宣化县", "County_pinyin": "Xuanhua xian", "County code": 130721, "Township": "深井镇", "Township_pinyin": "shen jing zhen" }, "geometry": { "type": "Polygon", "coordinates": [ [ [ 114.937015151827836, 40.413318170197442 ], [ 114.93692532124669, 40.413318170197442 ], [ 114.936925320347314, 40.413497833158544 ], [ 114.937015151827836, 40.413497833158544 ], [ 114.937015151827836, 40.413318170197442 ] ] ] } },
{ "type": "Feature", "properties": { "PV_Area": 0.0242591463182, "Inst_time": 20140513.0, "Inst_year": 2014, "Major_type": "Grassland", "Lat": 40.412385026099997, "Lon": 114.92849251200001, "Province": "河北", "Province_pinyin": "Hebei", "Province code": 13, "City": "张家口市", "City_pinyin": "Zhangjiakou", "City code": 1307, "County": "宣化县", "County_pinyin": "Xuanhua xian", "County code": 130721, "Township": "深井镇", "Township_pinyin": "shen jing zhen" }, "geometry": { "type": "Polygon", "coordinates": [ [ [ 114.928091410290449, 40.412480697226442 ], [ 114.928031999277437, 40.412599518353147 ], [ 114.928031999277437, 40.41268934983367 ], [ 114.928047013458922, 40.412704364015212 ], [ 114.927905164291928, 40.412859323499049 ], [ 114.927864099448698, 40.413154622188131 ], [ 114.927763717121934, 40.41316504443131 ], [ 114.92761770589243, 40.413456868140031 ], [ 114.928128743846514, 40.413495083031705 ], [ 114.928407076825238, 40.41316851941167 ], [ 114.928274754176641, 40.413095562810042 ], [ 114.92816068326897, 40.412963546830269 ], [ 114.928201326330168, 40.412858676886458 ], [ 114.928211662238482, 40.412869012794772 ], [ 114.929020146462676, 40.412869012794772 ], [ 114.929020146462676, 40.412958844275295 ], [ 114.929469302966027, 40.412958844275295 ], [ 114.929559135345926, 40.412869012794772 ], [ 114.929648965027809, 40.412779181314193 ], [ 114.929738798306971, 40.412419855392045 ], [ 114.929738798306971, 40.412240192431 ], [ 114.929559135345926, 40.412060528570578 ], [ 114.92946930206665, 40.411970697989375 ], [ 114.928930314082777, 40.411880865609533 ], [ 114.928750651121732, 40.411791034128953 ], [ 114.928570988160686, 40.411791034128953 ], [ 114.928525078669509, 40.411813988424854 ], [ 114.928283880496792, 40.411803185768463 ], [ 114.928229126173278, 40.411327223172862 ], [ 114.928320383079267, 40.411229946205083 ], [ 114.92813330610727, 40.411243842529359 ], [ 114.927959918615443, 40.411361964882815 ], [ 114.927973607196236, 40.411813608011641 ], [ 114.927622269052563, 40.411789289444187 ], [ 114.927613142732412, 40.412018583291058 ], [ 114.926983471610015, 40.411980367500007 ], [ 114.926969783029108, 40.412133230664097 ], [ 114.927083853936779, 40.412230506732556 ], [ 114.92759032873073, 40.412244403056832 ], [ 114.927599455050881, 40.41251191179532 ], [ 114.928091410290449, 40.412480697226442 ] ] ] } },
{ "type": "Feature", "properties": { "PV_Area": 0.0053652807294799999, "Inst_time": 20110407.0, "Inst_year": 2011, "Major_type": "Cropland", "Lat": 40.373463340299999, "Lon": 114.946828025, "Province": "河北", "Province_pinyin": "Hebei", "Province code": 13, "City": "张家口市", "City_pinyin": "Zhangjiakou", "City code": 1307, "County": "宣化县", "County_pinyin": "Xuanhua xian", "County code": 130721, "Township": "深井镇", "Township_pinyin": "shen jing zhen" }, "geometry": { "type": "Polygon", "coordinates": [ [ [ 114.947076283044112, 40.373882128657385 ], [ 114.947076282144735, 40.373792298076125 ], [ 114.947166115423897, 40.373702465696283 ], [ 114.947255946005157, 40.37361263421576 ], [ 114.947345778385056, 40.37361263511508 ], [ 114.947345778385056, 40.373432972153978 ], [ 114.947255945105894, 40.373343140673455 ], [ 114.947166115423897, 40.373253309192933 ], [ 114.94698644976495, 40.373163476813033 ], [ 114.946806787703167, 40.37307364623183 ], [ 114.946537293261486, 40.37307364623183 ], [ 114.946447461780963, 40.373163476813033 ], [ 114.94635763030044, 40.373253309192933 ], [ 114.94635763209908, 40.373432972153978 ], [ 114.946447461780963, 40.37361263511508 ], [ 114.946537293261486, 40.373702465696283 ], [ 114.946806787703167, 40.373882128657385 ], [ 114.947076283044112, 40.373882128657385 ] ] ] } },
{ "type": "Feature", "properties": { "PV_Area": 0.00038052441004399998, "Inst_time": 20110407.0, "Inst_year": 2011, "Major_type": "Grassland", "Lat": 40.372073520500003, "Lon": 114.946402546, "Province": "河北", "Province_pinyin": "Hebei", "Province code": 13, "City": "张家口市", "City_pinyin": "Zhangjiakou", "City code": 1307, "County": "宣化县", "County_pinyin": "Xuanhua xian", "County code": 130721, "Township": "深井镇", "Township_pinyin": "shen jing zhen" }, "geometry": { "type": "Polygon", "coordinates": [ [ [ 114.946447461780963, 40.372175329627794 ], [ 114.946537293261486, 40.372085499046591 ], [ 114.946537294160862, 40.371995666666749 ], [ 114.946267798819918, 40.371995666666749 ], [ 114.946267798819918, 40.372085499046591 ], [ 114.94635763209908, 40.372175329627794 ], [ 114.946447461780963, 40.372175329627794 ] ] ] } },
{ "type": "Feature", "properties": { "PV_Area": 0.013141225889, "Inst_time": 20100612.0, "Inst_year": 2010, "Major_type": "Grassland", "Lat": 40.328120526799999, "Lon": 114.775766081, "Province": "河北", "Province_pinyin": "Hebei", "Province code": 13, "City": "张家口市", "City_pinyin": "Zhangjiakou", "City code": 1307, "County": "宣化县", "County_pinyin": "Xuanhua xian", "County code": 130721, "Township": "王家湾乡", "Township_pinyin": "wang jia wan xiang" }, "geometry": { "type": "Polygon", "coordinates": [ [ [ 114.77558789586476, 40.327626747476472 ], [ 114.775519346840497, 40.327624847208995 ], [ 114.775528473160534, 40.328387796059985 ], [ 114.775318582186856, 40.328390114512217 ], [ 114.775269911777059, 40.328037628833556 ], [ 114.77515736252235, 40.328030671678221 ], [ 114.775105649706006, 40.328121112899112 ], [ 114.774780167970448, 40.328114155743719 ], [ 114.774701078891781, 40.328176768343212 ], [ 114.774664576309192, 40.328253295253432 ], [ 114.774795377304827, 40.328255613705664 ], [ 114.774807545132148, 40.328441132152591 ], [ 114.774929220707008, 40.328441132152591 ], [ 114.774932262214179, 40.3284991069483 ], [ 114.775047853875435, 40.328589546370495 ], [ 114.775288163517985, 40.328601141329671 ], [ 114.775309456766081, 40.328768107662086 ], [ 114.775418964513619, 40.328770426114318 ], [ 114.775406797585674, 40.328988408288467 ], [ 114.775519346840497, 40.329099718277405 ], [ 114.775677525897208, 40.329090442669838 ], [ 114.775790075151917, 40.32896289991794 ], [ 114.775780949731143, 40.328682305144298 ], [ 114.775899583798832, 40.32868926229969 ], [ 114.776012133952918, 40.328557080844632 ], [ 114.776027343287296, 40.328429537193415 ], [ 114.776133809527778, 40.328429537193415 ], [ 114.776149018862156, 40.328257933057216 ], [ 114.776255485102638, 40.328255613705664 ], [ 114.776224255245211, 40.3278984893239 ], [ 114.776349783515798, 40.3278984893239 ], [ 114.776346742008627, 40.327666589241744 ], [ 114.776459291263336, 40.32766195143796 ], [ 114.776699600905886, 40.327395265579071 ], [ 114.776702643312433, 40.327195830123514 ], [ 114.776833444308068, 40.327198149475066 ], [ 114.776809109552801, 40.327052051011378 ], [ 114.776647888988919, 40.327056688815162 ], [ 114.776638763568144, 40.327147130935373 ], [ 114.776337615688476, 40.327158725894549 ], [ 114.776337615688476, 40.327388308423735 ], [ 114.776276778350734, 40.327606295094483 ], [ 114.776030384794467, 40.327613252249819 ], [ 114.776012133952918, 40.327550638751006 ], [ 114.775933044874137, 40.327432369808093 ], [ 114.775793117558351, 40.327432369808093 ], [ 114.775740029678673, 40.327618891898396 ], [ 114.77558789586476, 40.327618890999076 ], [ 114.77558789586476, 40.327626747476472 ] ] ] } },
{ "type": "Feature", "properties": { "PV_Area": 0.013707816585, "Inst_time": 20120825.0, "Inst_year": 2012, "Major_type": "Grassland", "Lat": 40.327432408900002, "Lon": 114.786549587, "Province": "河北", "Province_pinyin": "Hebei", "Province code": 13, "City": "张家口市", "City_pinyin": "Zhangjiakou", "City code": 1307, "County": "宣化县", "County_pinyin": "Xuanhua xian", "County code": 130721, "Township": "王家湾乡", "Township_pinyin": "wang jia wan xiang" }, "geometry": { "type": "Polygon", "coordinates": [ [ [ 114.786457510405853, 40.328157881680966 ], [ 114.786457510405853, 40.328068050200386 ], [ 114.786727004847421, 40.328068050200386 ], [ 114.786906668707843, 40.327978217820544 ], [ 114.786996499289103, 40.327888387239341 ], [ 114.787176162250148, 40.327708724278239 ], [ 114.787176162250148, 40.326900240054101 ], [ 114.787086329870249, 40.326810408573522 ], [ 114.786727005746798, 40.326810408573522 ], [ 114.786367679824593, 40.326810408573522 ], [ 114.786188015064909, 40.326810408573522 ], [ 114.786098183584386, 40.326900240054101 ], [ 114.786008352103863, 40.326990072433944 ], [ 114.785918520623341, 40.327349398356091 ], [ 114.785918520623341, 40.327708724278239 ], [ 114.786098183584386, 40.328068050200386 ], [ 114.786277847444808, 40.328157881680966 ], [ 114.786457510405853, 40.328157881680966 ] ] ] } },
{ "type": "Feature", "properties": { "PV_Area": 0.0067777987226399997, "Inst_time": 20100612.0, "Inst_year": 2010, "Major_type": "Grassland", "Lat": 40.325557869900003, "Lon": 114.775151431, "Province": "河北", "Province_pinyin": "Hebei", "Province code": 13, "City": "张家口市", "City_pinyin": "Zhangjiakou", "City code": 1307, "County": "宣化县", "County_pinyin": "Xuanhua xian", "County code": 130721, "Township": "王家湾乡", "Township_pinyin": "wang jia wan xiang" }, "geometry": { "type": "Polygon", "coordinates": [ [ [ 114.774779410741303, 40.325373977227343 ], [ 114.774991578798335, 40.325383492054584 ], [ 114.774939437005514, 40.32573242990776 ], [ 114.774885180007118, 40.32573242990776 ], [ 114.774897280385289, 40.325926154668366 ], [ 114.775237972354603, 40.325907602553855 ], [ 114.775244056268207, 40.326000364924937 ], [ 114.775320103839817, 40.32599108841805 ], [ 114.775320103839817, 40.32615806104576 ], [ 114.774556588415862, 40.326141827383481 ], [ 114.774602217318488, 40.326306479760262 ], [ 114.775006789032204, 40.326287927645808 ], [ 114.775015914452979, 40.326385327820674 ], [ 114.775423527673752, 40.326352861395492 ], [ 114.775469155677001, 40.326076893633797 ], [ 114.775350522508688, 40.325613080879009 ], [ 114.775399192918485, 40.325225794135122 ], [ 114.775545203248612, 40.324880249424041 ], [ 114.775517826086912, 40.324599637563267 ], [ 114.775031123787358, 40.324592680407932 ], [ 114.775021998366583, 40.324662252860719 ], [ 114.774872945630023, 40.324678487422318 ], [ 114.774863819309871, 40.324748059875105 ], [ 114.775365731843067, 40.324729507760651 ], [ 114.775371815756785, 40.32483154753794 ], [ 114.775253181689095, 40.325202603317564 ], [ 114.774781688724033, 40.325237389094298 ], [ 114.774772563303259, 40.32528377072947 ], [ 114.774748227648615, 40.32531391960174 ], [ 114.774459248495532, 40.325316238053972 ], [ 114.774459248495532, 40.325392767662152 ], [ 114.774779410741303, 40.325397698644906 ], [ 114.774779410741303, 40.325373977227343 ] ] ] } },
{ "type": "Feature", "properties": { "PV_Area": 0.12901109072399999, "Inst_time": 20120503.0, "Inst_year": 2012, "Major_type": "Grassland", "Lat": 40.3260088575, "Lon": 114.788039587, "Province": "河北", "Province_pinyin": "Hebei", "Province code": 13, "City": "张家口市", "City_pinyin": "Zhangjiakou", "City code": 1307, "County": "宣化县", "County_pinyin": "Xuanhua xian", "County code": 130721, "Township": "王家湾乡", "Township_pinyin": "wang jia wan xiang" }, "geometry": { "type": "MultiPolygon", "coordinates": [ [ [ [ 114.786826508536592, 40.323855640125771 ], [ 114.786816835428681, 40.323845967917123 ], [ 114.786457509506477, 40.323845967917123 ], [ 114.78636767892533, 40.323935800297022 ], [ 114.78636767892533, 40.324115463258067 ], [ 114.786457509506477, 40.324115463258067 ], [ 114.786457510405853, 40.324384956800372 ], [ 114.785918520623341, 40.324384956800372 ], [ 114.785918520623341, 40.32429512621917 ], [ 114.785469364119876, 40.32429512621917 ], [ 114.785379531740091, 40.324384956800372 ], [ 114.785020206717263, 40.32474428272252 ], [ 114.784930374337364, 40.324923945683622 ], [ 114.784930374337364, 40.325373103985612 ], [ 114.784930374337364, 40.325822262287602 ], [ 114.784930374337364, 40.326001925248704 ], [ 114.785379531740091, 40.326540914131954 ], [ 114.785559194701136, 40.326540914131954 ], [ 114.785649026181659, 40.326451081752055 ], [ 114.785649026181659, 40.326181588209806 ], [ 114.785649025282396, 40.326001925248704 ], [ 114.785738857662182, 40.325912092868862 ], [ 114.785918520623341, 40.325912092868862 ], [ 114.786008353003126, 40.326001925248704 ], [ 114.786098183584386, 40.326181588209806 ], [ 114.786098184483649, 40.326451081752055 ], [ 114.786277847444808, 40.326540914131954 ], [ 114.787086330769625, 40.326540914131954 ], [ 114.78735582611057, 40.326720577092999 ], [ 114.787535488172352, 40.326810408573522 ], [ 114.788264271778758, 40.326810408573522 ], [ 114.788369816214072, 40.327023063163892 ], [ 114.788330272124426, 40.327157566668404 ], [ 114.788351565372523, 40.327317578543443 ], [ 114.788813932017433, 40.327305983584324 ], [ 114.788810890510263, 40.327616730827515 ], [ 114.788485407875328, 40.327598178713004 ], [ 114.788436738364794, 40.327751233432707 ], [ 114.788567539360542, 40.328001684729998 ], [ 114.78855233002605, 40.328117634321416 ], [ 114.787852695245761, 40.328103720010745 ], [ 114.787849652839213, 40.328177927569357 ], [ 114.788321145804275, 40.328196479683868 ], [ 114.788330272124426, 40.328266049438696 ], [ 114.788996445829412, 40.328268367890928 ], [ 114.789020781483941, 40.32819879903542 ], [ 114.789537902452253, 40.328170971313341 ], [ 114.789550070279574, 40.328096762855353 ], [ 114.790249705059864, 40.328066616681042 ], [ 114.790237537232656, 40.327700214893071 ], [ 114.79036529672112, 40.327702534244622 ], [ 114.790356171300346, 40.327632963590474 ], [ 114.790045897999903, 40.327377872690704 ], [ 114.79005502431994, 40.327333811306403 ], [ 114.789948558079573, 40.327331492854171 ], [ 114.789875552015133, 40.327069443000426 ], [ 114.790283166135282, 40.327071762351977 ], [ 114.790240579639089, 40.326740140944821 ], [ 114.790106736236908, 40.326591723129582 ], [ 114.789814714677391, 40.326575489467302 ], [ 114.789790379922124, 40.326376051313787 ], [ 114.789659578027113, 40.326341265537053 ], [ 114.789571363527671, 40.326341265537053 ], [ 114.789531818538649, 40.326144146735032 ], [ 114.790188866822859, 40.326134870228145 ], [ 114.790356171300346, 40.326002683377169 ], [ 114.790441344292617, 40.325919197513031 ], [ 114.790441344292617, 40.325650186007351 ], [ 114.789601614023354, 40.325645144407929 ], [ 114.789601614023354, 40.325642599326557 ], [ 114.789511781643455, 40.325552766946714 ], [ 114.788882961279683, 40.325552766946714 ], [ 114.788882961279683, 40.325642599326557 ], [ 114.788703298318637, 40.325642599326557 ], [ 114.788523635357592, 40.325462937264774 ], [ 114.788523634458215, 40.32519344102451 ], [ 114.788433802977693, 40.325013778063465 ], [ 114.788343972396433, 40.324923945683622 ], [ 114.788339656549965, 40.324919629837098 ], [ 114.788348522965975, 40.324759655733601 ], [ 114.788299852556179, 40.324214663875694 ], [ 114.788135590485126, 40.324135814016643 ], [ 114.787837485012005, 40.324131175313539 ], [ 114.787834443504835, 40.324061601961432 ], [ 114.787460290460103, 40.323843603599471 ], [ 114.786826508536592, 40.323855640125771 ] ] ], [ [ [ 114.789705206929852, 40.328437653574895 ], [ 114.790724240431359, 40.328451567885622 ], [ 114.79060864787084, 40.328161694806397 ], [ 114.790295333063227, 40.328147781395046 ], [ 114.790261872887186, 40.328245178871953 ], [ 114.789829924011883, 40.328249816675736 ], [ 114.789717373857798, 40.328307790572126 ], [ 114.789680871275209, 40.328365765367835 ], [ 114.789705206929852, 40.328437653574895 ] ] ], [ [ [ 114.790870250761486, 40.328129229280535 ], [ 114.790991926336346, 40.32811067716608 ], [ 114.79113793756585, 40.327897330097755 ], [ 114.791150104493795, 40.327804570424632 ], [ 114.790998010250064, 40.327792975465513 ], [ 114.79080332951014, 40.327883415787085 ], [ 114.790788120175648, 40.327946029285897 ], [ 114.790870250761486, 40.328129229280535 ] ] ], [ [ [ 114.790693820863225, 40.328785499651133 ], [ 114.790839832092615, 40.328797094610309 ], [ 114.79082158035169, 40.328940870125109 ], [ 114.790964549174646, 40.328950145732676 ], [ 114.79101930349816, 40.328815645825443 ], [ 114.79153034145213, 40.328801732414092 ], [ 114.791572927948323, 40.328660275351467 ], [ 114.791545550786623, 40.328500266174387 ], [ 114.791189649482817, 40.328504903978171 ], [ 114.791174440148325, 40.328597662751974 ], [ 114.790994968742893, 40.32860461990731 ], [ 114.790964549174646, 40.328743758517703 ], [ 114.790733365852248, 40.328741439166151 ], [ 114.790693820863225, 40.328785499651133 ] ] ], [ [ [ 114.792747098100108, 40.327897330097755 ], [ 114.793206423237848, 40.327864863672573 ], [ 114.793303764057555, 40.327748914081155 ], [ 114.793328098812822, 40.327577308146317 ], [ 114.793318973391933, 40.327398744156767 ], [ 114.79309691549031, 40.327410339115886 ], [ 114.793036077253191, 40.327452081148692 ], [ 114.792725804852125, 40.327468314810915 ], [ 114.79264063185974, 40.327586583753884 ], [ 114.792628464032418, 40.327635282942026 ], [ 114.792704511604029, 40.327760509040331 ], [ 114.792747098100108, 40.327897330097755 ] ] ], [ [ [ 114.793106040911084, 40.326547660845904 ], [ 114.79321859106517, 40.326531427183681 ], [ 114.793318973391933, 40.326276332686632 ], [ 114.793407187891489, 40.3261534223426 ], [ 114.79346498372206, 40.325977174107379 ], [ 114.793474110042212, 40.325756862689104 ], [ 114.793130375666351, 40.325761501392208 ], [ 114.793151668914447, 40.325531912567783 ], [ 114.792996533163546, 40.325543508426222 ], [ 114.792917443185502, 40.325902963850751 ], [ 114.793011742497924, 40.326185889667101 ], [ 114.793011742497924, 40.326540703690569 ], [ 114.793106040911084, 40.326547660845904 ] ] ] ] } },
{ "type": "Feature", "properties": { "PV_Area": 0.0092850365149900003, "Inst_time": 20141006.0, "Inst_year": 2014, "Major_type": "Grassland", "Lat": 40.464186680200001, "Lon": 114.803541962, "Province": "河北", "Province_pinyin": "Hebei", "Province code": 13, "City": "张家口市", "City_pinyin": "Zhangjiakou", "City code": 1307, "County": "宣化县", "County_pinyin": "Xuanhua xian", "County code": 130721, "Township": "深井镇", "Township_pinyin": "shen jing zhen" }, "geometry": { "type": "Polygon", "coordinates": [ [ [ 114.803219010848693, 40.463745041400614 ], [ 114.803026769969506, 40.46374146389752 ], [ 114.802955151559104, 40.463767120656144 ], [ 114.802879088699001, 40.463822393888393 ], [ 114.802823864929451, 40.463888885263884 ], [ 114.802785419811357, 40.46398274300924 ], [ 114.802765536700235, 40.464049925064046 ], [ 114.802760697448321, 40.464198407630477 ], [ 114.802776174780661, 40.464266263277466 ], [ 114.802826126724426, 40.464361785667904 ], [ 114.802930978681729, 40.464459933179398 ], [ 114.803019590681629, 40.464503243629849 ], [ 114.803179965882805, 40.464533401495316 ], [ 114.804099329320707, 40.464483238210903 ], [ 114.804259330403852, 40.464459255090617 ], [ 114.804420197534114, 40.464408269825867 ], [ 114.804551203575215, 40.464298376269085 ], [ 114.804553683905397, 40.464219042574825 ], [ 114.804448836444749, 40.464120904056529 ], [ 114.804395127133489, 40.464091759726955 ], [ 114.80420285837522, 40.464020552306692 ], [ 114.803816769528339, 40.463971478101314 ], [ 114.803680270428231, 40.4639390395551 ], [ 114.803219010848693, 40.463745041400614 ] ] ] } },
{ "type": "Feature", "properties": { "PV_Area": 0.0084004969817499994, "Inst_time": 20141029.0, "Inst_year": 2014, "Major_type": "Cropland", "Lat": 40.467685661700003, "Lon": 114.811427589, "Province": "河北", "Province_pinyin": "Hebei", "Province code": 13, "City": "张家口市", "City_pinyin": "Zhangjiakou", "City code": 1307, "County": "宣化县", "County_pinyin": "Xuanhua xian", "County code": 130721, "Township": "深井镇", "Township_pinyin": "shen jing zhen" }, "geometry": { "type": "Polygon", "coordinates": [ [ [ 114.811867969031596, 40.467138628644875 ], [ 114.811709348407817, 40.467122108998183 ], [ 114.811548919247343, 40.467159599935655 ], [ 114.811243084101079, 40.467315947972679 ], [ 114.811039747386531, 40.467476911330436 ], [ 114.810928850186315, 40.467623427079559 ], [ 114.810852858372755, 40.467784135929207 ], [ 114.810830352838593, 40.467932284847109 ], [ 114.810861765258323, 40.468054463143005 ], [ 114.810912604832879, 40.468122997778153 ], [ 114.810967742267508, 40.468167249818805 ], [ 114.811072498896806, 40.468209765268512 ], [ 114.811193531456411, 40.468225649993826 ], [ 114.81133764241838, 40.468214787982106 ], [ 114.811552429301287, 40.468137793424489 ], [ 114.811755766915212, 40.467976828268036 ], [ 114.81190552472026, 40.467722960446338 ], [ 114.811963842157638, 40.467561908055643 ], [ 114.812004904302967, 40.467387028588576 ], [ 114.811991606027846, 40.467251739975893 ], [ 114.811958003758946, 40.467197041410373 ], [ 114.811867969031596, 40.467138628644875 ] ] ] } },
{ "type": "Feature", "properties": { "PV_Area": 0.16728848274200001, "Inst_time": 20141018.0, "Inst_year": 2014, "Major_type": "Grassland", "Lat": 40.470980189899997, "Lon": 114.81345718199999, "Province": "河北", "Province_pinyin": "Hebei", "Province code": 13, "City": "张家口市", "City_pinyin": "Zhangjiakou", "City code": 1307, "County": "宣化县", "County_pinyin": "Xuanhua xian", "County code": 130721, "Township": "深井镇", "Township_pinyin": "shen jing zhen" }, "geometry": { "type": "Polygon", "coordinates": [ [ [ 114.813518019940716, 40.472444804084489 ], [ 114.813793734992942, 40.472358926922993 ], [ 114.813998684192029, 40.472320380181429 ], [ 114.814762089898636, 40.472240238895949 ], [ 114.815688876340687, 40.472195296176039 ], [ 114.816300382057079, 40.472179832333438 ], [ 114.817118587053187, 40.472175089308962 ], [ 114.817765953236176, 40.472082711847747 ], [ 114.817882641170968, 40.472067994442455 ], [ 114.818173939675603, 40.472073769888596 ], [ 114.818413087394106, 40.472120070584822 ], [ 114.818849261284413, 40.472275333140146 ], [ 114.819060145109688, 40.47231985317876 ], [ 114.819378353128513, 40.472325859750697 ], [ 114.819573733541006, 40.472302524142208 ], [ 114.819823892558702, 40.472226177995765 ], [ 114.820024867653615, 40.47209339489433 ], [ 114.820063449468648, 40.472038872595931 ], [ 114.820064758881585, 40.47199842288893 ], [ 114.819992378745383, 40.471940348268504 ], [ 114.81992253919384, 40.47191201242947 ], [ 114.819570640772554, 40.471851322580505 ], [ 114.819136757455453, 40.471842672001742 ], [ 114.818898519850904, 40.471810008625027 ], [ 114.818720644742029, 40.471747512038121 ], [ 114.81841148929891, 40.471586226723048 ], [ 114.818235972212392, 40.471542373082116 ], [ 114.818145869136629, 40.471527080110718 ], [ 114.817796566158677, 40.471520481784864 ], [ 114.817621346747842, 40.471539738967806 ], [ 114.817527621202771, 40.471522891967936 ], [ 114.817471306555603, 40.471496713602505 ], [ 114.817400634231944, 40.471421051840139 ], [ 114.817312701220203, 40.471203320576819 ], [ 114.817262286125697, 40.471121281721821 ], [ 114.817172657891888, 40.471049361139137 ], [ 114.817032529128028, 40.471006182889084 ], [ 114.816801862915668, 40.471028847603293 ], [ 114.816158585050744, 40.471177635039851 ], [ 114.815959230534077, 40.471172475629317 ], [ 114.815765270151132, 40.47109526253638 ], [ 114.815479125661227, 40.470895743443862 ], [ 114.814886280877204, 40.470627812023963 ], [ 114.814728451656833, 40.470584286635585 ], [ 114.814405239810071, 40.470535046055602 ], [ 114.814298378767262, 40.47050001566322 ], [ 114.814222596495711, 40.470440905023793 ], [ 114.81419540099705, 40.470398375184914 ], [ 114.814174606872712, 40.470325988753416 ], [ 114.814176767943536, 40.47025941104306 ], [ 114.81424109644945, 40.470080541284005 ], [ 114.814514948106421, 40.469637000147486 ], [ 114.814534381556541, 40.469583319614571 ], [ 114.814537884415927, 40.469475372190743 ], [ 114.814504280348274, 40.469420673625223 ], [ 114.814396114389183, 40.469375429632407 ], [ 114.814289660739291, 40.469386928364088 ], [ 114.81383376021995, 40.469513061878331 ], [ 114.813614858039273, 40.469508079634238 ], [ 114.813517877847858, 40.469471844150348 ], [ 114.813419474928878, 40.46939287198353 ], [ 114.813362587413508, 40.469268780829623 ], [ 114.813332316233414, 40.469006638345718 ], [ 114.813284968726407, 40.468830111320642 ], [ 114.813251797232738, 40.468761902240033 ], [ 114.813179861361618, 40.468690316205198 ], [ 114.813057424060958, 40.468647470704241 ], [ 114.812862566154536, 40.468657293998945 ], [ 114.812702153181931, 40.468694792131032 ], [ 114.812451527416101, 40.468784627208834 ], [ 114.81228976815828, 40.468862632604441 ], [ 114.812104550984259, 40.469010428988156 ], [ 114.812030329935851, 40.469117103871326 ], [ 114.811953462182601, 40.46930482116062 ], [ 114.81187178395578, 40.469641062385165 ], [ 114.811868047272583, 40.469707408969782 ], [ 114.811786277314923, 40.469932531761003 ], [ 114.811728768367971, 40.470030118095508 ], [ 114.811650501269696, 40.470116052813637 ], [ 114.811556492438285, 40.470167107326176 ], [ 114.811444342482446, 40.47018173030267 ], [ 114.811345670666242, 40.470150445586626 ], [ 114.81126046439897, 40.470100444180218 ], [ 114.811119259146608, 40.469943845232308 ], [ 114.810972414245612, 40.469717421122141 ], [ 114.810797551865562, 40.469591052884823 ], [ 114.810639297265766, 40.469561027219697 ], [ 114.810390549284534, 40.469596848116112 ], [ 114.810154032982268, 40.469682427601981 ], [ 114.809932386070841, 40.469734205169459 ], [ 114.809216541010642, 40.469790784217366 ], [ 114.809035888795279, 40.469856012045398 ], [ 114.808942897996417, 40.469936883580374 ], [ 114.808923023878492, 40.470004005380588 ], [ 114.808938510204143, 40.470071834047928 ], [ 114.809006152711845, 40.470167710771307 ], [ 114.809230723319274, 40.470362496731866 ], [ 114.809343178145241, 40.47048499068984 ], [ 114.809394102256078, 40.470569756289251 ], [ 114.809513348762152, 40.470893477152288 ], [ 114.809617776239406, 40.471005115393837 ], [ 114.809793937240443, 40.47107710792227 ], [ 114.810284360934588, 40.471087208208132 ], [ 114.810439672053235, 40.471139807756003 ], [ 114.810564576194338, 40.471239039849877 ], [ 114.811095508950643, 40.471748104691358 ], [ 114.811385701289169, 40.472077474196112 ], [ 114.811594481600082, 40.472245145597071 ], [ 114.81194483408683, 40.472401502627292 ], [ 114.812172956117138, 40.472459874923345 ], [ 114.812526528176818, 40.472466570375957 ], [ 114.813358035944702, 40.472468798895989 ], [ 114.813518019940716, 40.472444804084489 ] ] ] } },
{ "type": "Feature", "properties": { "PV_Area": 0.070922966355000006, "Inst_time": 20141023.0, "Inst_year": 2014, "Major_type": "Cropland", "Lat": 40.468943953500002, "Lon": 114.817724961, "Province": "河北", "Province_pinyin": "Hebei", "Province code": 13, "City": "张家口市", "City_pinyin": "Zhangjiakou", "City code": 1307, "County": "宣化县", "County_pinyin": "Xuanhua xian", "County code": 130721, "Township": "深井镇", "Township_pinyin": "shen jing zhen" }, "geometry": { "type": "Polygon", "coordinates": [ [ [ 114.817769284325095, 40.466831368073258 ], [ 114.817522263042065, 40.466813190076721 ], [ 114.817361400408345, 40.466864193327922 ], [ 114.817248674886514, 40.466959316419377 ], [ 114.817192578774552, 40.467052829724366 ], [ 114.817172990641097, 40.467108138030198 ], [ 114.817163527974458, 40.467403537443374 ], [ 114.817194515914252, 40.467539243341434 ], [ 114.817243621595935, 40.467661752587844 ], [ 114.817294034891802, 40.467743793241539 ], [ 114.817491876748818, 40.467979404825712 ], [ 114.817500607367151, 40.468041558770949 ], [ 114.817486637298543, 40.468087247928224 ], [ 114.817380020871383, 40.468180155989444 ], [ 114.816996339509501, 40.468303085219247 ], [ 114.816867844375565, 40.468383185135963 ], [ 114.816829692436386, 40.468424212207708 ], [ 114.816754599045566, 40.468557902725081 ], [ 114.816734731222937, 40.468625088377166 ], [ 114.816722810709166, 40.468989794043807 ], [ 114.81669932941054, 40.469123207570021 ], [ 114.816653355168228, 40.469233539995912 ], [ 114.816552465623886, 40.469363462353954 ], [ 114.816472946669251, 40.469419635807583 ], [ 114.816317740771183, 40.469474803819196 ], [ 114.815930978332062, 40.469512553761376 ], [ 114.815752429630948, 40.469563217968187 ], [ 114.815639706807133, 40.469658329368485 ], [ 114.815618088004385, 40.469779470746005 ], [ 114.81568443009246, 40.469915834947869 ], [ 114.815735720227394, 40.469970849175411 ], [ 114.815995800565815, 40.470193531206576 ], [ 114.816153423841456, 40.470292194029582 ], [ 114.816345722277333, 40.47036338256413 ], [ 114.817240934421648, 40.470582979920664 ], [ 114.817435326479199, 40.470586653651196 ], [ 114.817506947587617, 40.470560987899319 ], [ 114.817637360076219, 40.470466199355656 ], [ 114.817811751211366, 40.470199360612071 ], [ 114.817865703339635, 40.470157461197914 ], [ 114.81803607720326, 40.470112767590194 ], [ 114.818317949913535, 40.470103377768737 ], [ 114.818496046255632, 40.470066206090564 ], [ 114.818871753328835, 40.469938184000057 ], [ 114.81905608017405, 40.46981738706279 ], [ 114.819111740114749, 40.469737377078332 ], [ 114.819151473062107, 40.469603005774161 ], [ 114.819299001447803, 40.468874510850071 ], [ 114.819303212073692, 40.468741156679073 ], [ 114.819227914536668, 40.46833437443189 ], [ 114.819179677600118, 40.468184836061369 ], [ 114.819056002832326, 40.468071740018843 ], [ 114.818688938244009, 40.46793822936587 ], [ 114.818586542335083, 40.467859502713907 ], [ 114.818556096686621, 40.467787466118693 ], [ 114.818564133028417, 40.467524632056154 ], [ 114.818515898789769, 40.4673751143701 ], [ 114.818413757389067, 40.46725156640673 ], [ 114.818186174952075, 40.467068938380862 ], [ 114.817961132200594, 40.466916055431682 ], [ 114.817769284325095, 40.466831368073258 ] ] ] } },
{ "type": "Feature", "properties": { "PV_Area": 0.010496527948499999, "Inst_time": 20131209.0, "Inst_year": 2013, "Major_type": "Grassland", "Lat": 40.410840968499997, "Lon": 115.04509181100001, "Province": "河北", "Province_pinyin": "Hebei", "Province code": 13, "City": "张家口市", "City_pinyin": "Zhangjiakou", "City code": 1307, "County": "宣化县", "County_pinyin": "Xuanhua xian", "County code": 130721, "Township": "崞村镇", "Township_pinyin": "guo cun zhen" }, "geometry": { "type": "Polygon", "coordinates": [ [ [ 115.045801133215832, 40.41170120264843 ], [ 115.045801133215832, 40.411611371167908 ], [ 115.045801133215832, 40.410982551703455 ], [ 115.045711300835933, 40.410802887843033 ], [ 115.045531637874888, 40.410713056362511 ], [ 115.044992648991638, 40.410713056362511 ], [ 115.044992648991638, 40.410084235099418 ], [ 115.044902817511115, 40.409994403618896 ], [ 115.044633323069434, 40.409994403618896 ], [ 115.044543490689648, 40.410084235099418 ], [ 115.044453661007765, 40.410353730440363 ], [ 115.044453659209012, 40.410713056362511 ], [ 115.044543490689648, 40.410982550804135 ], [ 115.044723153650693, 40.411162213765181 ], [ 115.044812986929855, 40.41125204524576 ], [ 115.044992648991638, 40.41125204524576 ], [ 115.044992648991638, 40.411162213765181 ], [ 115.04517231105342, 40.411162213765181 ], [ 115.045351974913729, 40.41125204524576 ], [ 115.045441806394365, 40.411341876726283 ], [ 115.045441807293628, 40.411521539687385 ], [ 115.045531637874888, 40.411611371167908 ], [ 115.045621470254673, 40.41170120264843 ], [ 115.045801133215832, 40.41170120264843 ] ] ] } },
{ "type": "Feature", "properties": { "PV_Area": 0.00122620782473, "Inst_time": 20121218.0, "Inst_year": 2012, "Major_type": "Cropland", "Lat": 40.4447113628, "Lon": 114.80965968700001, "Province": "河北", "Province_pinyin": "Hebei", "Province code": 13, "City": "张家口市", "City_pinyin": "Zhangjiakou", "City code": 1307, "County": "宣化县", "County_pinyin": "Xuanhua xian", "County code": 130721, "Township": "深井镇", "Township_pinyin": "shen jing zhen" }, "geometry": { "type": "Polygon", "coordinates": [ [ [ 114.809314739783531, 40.444810723136413 ], [ 114.809880092292474, 40.44482766186718 ], [ 114.809969124275767, 40.44473280317635 ], [ 114.809982479208088, 40.444604066124782 ], [ 114.809412674155624, 40.444600679277983 ], [ 114.809336998004142, 40.444742967314141 ], [ 114.809314739783531, 40.444810723136413 ] ] ] } },
{ "type": "Feature", "properties": { "PV_Area": 0.00647246136609, "Inst_time": 20130730.0, "Inst_year": 2013, "Major_type": "Grassland", "Lat": 40.4387455436, "Lon": 114.80654016699999, "Province": "河北", "Province_pinyin": "Hebei", "Province code": 13, "City": "张家口市", "City_pinyin": "Zhangjiakou", "City code": 1307, "County": "宣化县", "County_pinyin": "Xuanhua xian", "County code": 130721, "Township": "深井镇", "Township_pinyin": "shen jing zhen" }, "geometry": { "type": "Polygon", "coordinates": [ [ [ 114.805751236430524, 40.43907153762143 ], [ 114.806552524279596, 40.439078314013045 ], [ 114.806966522686935, 40.439003775503863 ], [ 114.807086715279752, 40.438736115679262 ], [ 114.807068909602549, 40.438305824254428 ], [ 114.806944264466324, 40.438299048762133 ], [ 114.806467943940561, 40.43838036276361 ], [ 114.806294330718856, 40.438461678563669 ], [ 114.806294331618119, 40.438729339287647 ], [ 114.806036138956756, 40.438753056208611 ], [ 114.805777946295279, 40.438878416305897 ], [ 114.805751236430524, 40.43907153762143 ] ] ] } },
{ "type": "Feature", "properties": { "PV_Area": 0.057059267107499999, "Inst_time": 20140713.0, "Inst_year": 2014, "Major_type": "Grassland", "Lat": 40.413451672500003, "Lon": 114.934212911, "Province": "河北", "Province_pinyin": "Hebei", "Province code": 13, "City": "张家口市", "City_pinyin": "Zhangjiakou", "City code": 1307, "County": "宣化县", "County_pinyin": "Xuanhua xian", "County code": 130721, "Township": "深井镇", "Township_pinyin": "shen jing zhen" }, "geometry": { "type": "Polygon", "coordinates": [ [ [ 114.932038558133058, 40.41351940159916 ], [ 114.932150884355906, 40.41351940159916 ], [ 114.932153165935915, 40.413642731027267 ], [ 114.932426935754506, 40.413651416679613 ], [ 114.932415528753722, 40.413705264486396 ], [ 114.932545569822196, 40.413825119833461 ], [ 114.933312125853945, 40.413833804586488 ], [ 114.93330528201318, 40.413670523675762 ], [ 114.933184366365481, 40.413670523675762 ], [ 114.933177522524716, 40.413300534492123 ], [ 114.933658901736976, 40.413305745164052 ], [ 114.933649776316201, 40.413380438356626 ], [ 114.933909857553999, 40.413378701765737 ], [ 114.933912139134009, 40.413455131549142 ], [ 114.934035335462454, 40.413451657468045 ], [ 114.934030773201698, 40.413630572193199 ], [ 114.934213924633013, 40.413628146721635 ], [ 114.93423037413254, 40.413677497018909 ], [ 114.934320205613062, 40.414396148863204 ], [ 114.934379876530102, 40.414515487999438 ], [ 114.934468805091342, 40.414512980689551 ], [ 114.934468805091342, 40.414634578922744 ], [ 114.934468805091342, 40.414858645010497 ], [ 114.934592001419787, 40.414919440080155 ], [ 114.935265019864801, 40.414900333083949 ], [ 114.935367683771688, 40.414806534693867 ], [ 114.935372349454383, 40.414665643304829 ], [ 114.935599877932077, 40.414665643304829 ], [ 114.935598107166925, 40.414749213705306 ], [ 114.935851344563957, 40.414724896037171 ], [ 114.935969978631647, 40.41462067540391 ], [ 114.935974541791779, 40.414016192493364 ], [ 114.935741836816419, 40.413950185852457 ], [ 114.935595825586915, 40.413870282887274 ], [ 114.935611092477984, 40.413398885250388 ], [ 114.935958571630863, 40.413382175846777 ], [ 114.936211809027782, 40.413185889816987 ], [ 114.936195838866979, 40.413137251782814 ], [ 114.935842219143183, 40.412949650505993 ], [ 114.935563517442461, 40.412937348679748 ], [ 114.935218520418402, 40.412419855392045 ], [ 114.935207984860654, 40.412398783377228 ], [ 114.935207984860654, 40.412332993472944 ], [ 114.935174559758138, 40.412331933172254 ], [ 114.935043722789601, 40.412327782801015 ], [ 114.934993531626219, 40.412164498293009 ], [ 114.935130220483302, 40.412174343171444 ], [ 114.935119009534674, 40.412023794862307 ], [ 114.935014064047891, 40.41202032078121 ], [ 114.934998093886975, 40.411876143269467 ], [ 114.934544091836415, 40.411884828921757 ], [ 114.934498463833052, 40.41181534550185 ], [ 114.934354734183671, 40.411818819582891 ], [ 114.934370286159833, 40.412100280403649 ], [ 114.934382980989881, 40.412330023911522 ], [ 114.934410037093585, 40.412330023911522 ], [ 114.934410037992961, 40.41268934983367 ], [ 114.93423037413254, 40.412958844275295 ], [ 114.934178862764384, 40.413061867011606 ], [ 114.934074119624938, 40.413066032671338 ], [ 114.934055868783389, 40.413027817779607 ], [ 114.933795786646328, 40.412840216502843 ], [ 114.933542549249296, 40.412843690583884 ], [ 114.933540267669287, 40.412390317159463 ], [ 114.932912878126899, 40.412409425054989 ], [ 114.932924285127683, 40.412586605887213 ], [ 114.932810214220126, 40.412631768941026 ], [ 114.932789680899077, 40.412755100167772 ], [ 114.932915159706909, 40.412739467252663 ], [ 114.932926566707692, 40.41290969812411 ], [ 114.932997290292747, 40.412907961533278 ], [ 114.933015542033672, 40.412972232482616 ], [ 114.932953943869506, 40.412972232482616 ], [ 114.9327919624792, 40.41305561042816 ], [ 114.932785118638321, 40.41316504443131 ], [ 114.932449749756188, 40.413171993492767 ], [ 114.932433780494648, 40.413086878057015 ], [ 114.932333397268508, 40.413081666485766 ], [ 114.932292332425277, 40.412812422955028 ], [ 114.93204593886901, 40.412835004931594 ], [ 114.93191133553978, 40.412928806019636 ], [ 114.931906772379648, 40.413095562810042 ], [ 114.932034531868226, 40.413093826219153 ], [ 114.932020497947633, 40.413467808392681 ], [ 114.931658098142748, 40.413481186707429 ], [ 114.931439595261168, 40.413677497018909 ], [ 114.93141321274959, 40.413677497018909 ], [ 114.931418549326622, 40.413785168350898 ], [ 114.931149733873212, 40.413793695722518 ], [ 114.931086271414301, 40.413857159980012 ], [ 114.931086271414301, 40.413930328821664 ], [ 114.930809410625898, 40.413925867285002 ], [ 114.930670244136536, 40.414005770250128 ], [ 114.930670244136536, 40.414118677435056 ], [ 114.931086271414301, 40.414118677435056 ], [ 114.931086271414301, 40.414126654421636 ], [ 114.931258635477661, 40.414126654421636 ], [ 114.931299915258933, 40.414136047840373 ], [ 114.932052783609151, 40.413703527895564 ], [ 114.932038558133058, 40.41351940159916 ] ] ] } }
]
}
