{
"type": "FeatureCollection",
"name": "GEM_villages",
"crs": { "type": "name", "properties": { "name": "urn:ogc:def:crs:OGC:1.3:CRS84" } },
"features": [
{ "type": "Feature", "properties": { "Date Last Researched": "2023/09/28", "Country": "China", "Project Name": "Hebei Province Xuanhua Zhongdiantou solar farm", "Phase": 1.0, "Project Name in Local Language / Script": "中电投宣化新能源发电张家口风光互补发电一期工程20.0MW发电工程", "Other Name(s)": null, "Capacity (MW)": 20.0, "Capacity Rating": "MWp/dc", "Technology Type": "PV", "Status": "operating", "Start year": 2015.0, "Retired year": null, "Operator": "China Power Investment Xuanhua New Energy Power Generation", "Operator Name in Local Language / Script": "中电投宣化新能源发电有限公司", "Owner": "State Power Investment Group Hebei Electric Power Co Ltd ; Oriental Wisdom (Hebei) New Energy Co Ltd", "Owner Name in Local Language / Script": "东方智慧（河北）新能源有限公司; 国家电投集团河北电力有限公司", "Hydrogen": null, "Latitude": 40.4233, "Longitude": 114.8151, "Location accuracy": "approximate", "Subregion": "Eastern Asia", "Region": "Asia", "GEM location ID": "L100000801580", "GEM phase ID": "G100000801822", "Other IDs (location)": null, "Other IDs (unit/phase)": "WKSL: 71671", "Wiki URL": "https://www.gem.wiki/Hebei_Province_Xuanhua_Zhongdiantou_solar_farm", "Province": "河北", "Province_pinyin": "Hebei", "Province code": 13, "City": "张家口市", "City_pinyin": "Zhangjiakou", "City code": 1307, "County": "宣化县", "County_pinyin": "Xuanhua xian", "County code": 130721, "Township": "深井镇", "Township_pinyin": "shen jing zhen" }, "geometry": { "type": "Point", "coordinates": [ 114.8151, 40.4233 ] } },
{ "type": "Feature", "properties": { "Date Last Researched": "2022/03/01", "Country": "China", "Project Name": "Hebei Daming Changsheng solar farm", "Phase": null, "Project Name in Local Language / Script": "大名县昌盛日电太阳能科技有限公司30兆瓦农光互补光伏扶贫项目", "Other Name(s)": null, "Capacity (MW)": 30.0, "Capacity Rating": "MWp/dc", "Technology Type": "PV", "Status": "operating", "Start year": 2018.0, "Retired year": null, "Operator": "Daming Changsheng Solar Energy Technology", "Operator Name in Local Language / Script": "大名县昌盛日电太阳能科技有限公司", "Owner": "Lingshou Changsheng Solar Energy Technology Co Ltd", "Owner Name in Local Language / Script": "灵寿县昌盛日电太阳能科技有限公司", "Hydrogen": null, "Latitude": 36.2486, "Longitude": 115.2673, "Location accuracy": "approximate", "Subregion": "Eastern Asia", "Region": "Asia", "GEM location ID": "L100000802666", "GEM phase ID": "G100000803139", "Other IDs (location)": null, "Other IDs (unit/phase)": null, "Wiki URL": "https://www.gem.wiki/Hebei_Daming_Changsheng_solar_farm", "Province": "河北", "Province_pinyin": "Hebei", "Province code": 13, "City": "邯郸市", "City_pinyin": "Handan", "City code": 1304, "County": "大名县", "County_pinyin": "Daming xian", "County code": 130425, "Township": "龙王庙镇", "Township_pinyin": "long wang miao zhen" }, "geometry": { "type": "Point", "coordinates": [ 115.2673, 36.2486 ] } },
{ "type": "Feature", "properties": { "Date Last Researched": "2023/09/29", "Country": "China", "Project Name": "Hebei Xuanhua Shenjing SPIC solar farm", "Phase": null, "Project Name in Local Language / Script": "宣化县龙洞山光伏发电张家口光伏电站项目30.0MW发电工程", "Other Name(s)": null, "Capacity (MW)": 30.0, "Capacity Rating": "MWp/dc", "Technology Type": "PV", "Status": "operating", "Start year": 2016.0, "Retired year": null, "Operator": "Xuanhua Longdongshan Photovoltaic Power Generation", "Operator Name in Local Language / Script": "宣化县龙洞山光伏发电有限公司", "Owner": "State Power Investment Group Hebei Electric Power Co Ltd", "Owner Name in Local Language / Script": "国家电投集团河北电力有限公司", "Hydrogen": null, "Latitude": 40.424, "Longitude": 114.815, "Location accuracy": "approximate", "Subregion": "Eastern Asia", "Region": "Asia", "GEM location ID": "L100000803183", "GEM phase ID": "G100000803684", "Other IDs (location)": null, "Other IDs (unit/phase)": "WKSL: 85228", "Wiki URL": "https://www.gem.wiki/Hebei_Xuanhua_Shenjing_SPIC_solar_farm", "Province": "河北", "Province_pinyin": "Hebei", "Province code": 13, "City": "张家口市", "City_pinyin": "Zhangjiakou", "City code": 1307, "County": "宣化县", "County_pinyin": "Xuanhua xian", "County code": 130721, "Township": "深井镇", "Township_pinyin": "shen jing zhen" }, "geometry": { "type": "Point", "coordinates": [ 114.815, 40.424 ] } },
{ "type": "Feature", "properties": { "Date Last Researched": "2024/06/07", "Country": "China", "Project Name": "Hebei Xuanhua Wangjiawan (Datang) solar farm", "Phase": null, "Project Name in Local Language / Script": "大唐宣化光伏发电平价上网试点项目", "Other Name(s)": null, "Capacity (MW)": 50.0, "Capacity Rating": "unknown", "Technology Type": "PV", "Status": "pre-construction", "Start year": null, "Retired year": null, "Operator": "Zhangjiakou Power Generation Branch of Datang International Power Generation", "Operator Name in Local Language / Script": "大唐国际发电股份有限公司张家口发电分公司", "Owner": "Datang International Power Generation Co Ltd", "Owner Name in Local Language / Script": "大唐国际发电股份有限公司", "Hydrogen": null, "Latitude": 40.2658, "Longitude": 114.8503, "Location accuracy": "approximate", "Subregion": "Eastern Asia", "Region": "Asia", "GEM location ID": "L100000810173", "GEM phase ID": "G100000812575", "Other IDs (location)": null, "Other IDs (unit/phase)": null, "Wiki URL": "https://www.gem.wiki/Hebei_Xuanhua_Wangjiawan_(Datang)_solar_farm", "Province": "河北", "Province_pinyin": "Hebei", "Province code": 13, "City": "张家口市", "City_pinyin": "Zhangjiakou", "City code": 1307, "County": "宣化县", "County_pinyin": "Xuanhua xian", "County code": 130721, "Township": "王家湾乡", "Township_pinyin": "wang jia wan xiang" }, "geometry": { "type": "Point", "coordinates": [ 114.8503, 40.2658 ] } },
{ "type": "Feature", "properties": { "Date Last Researched": "2024/07/12", "Country": "China", "Project Name": "Shandong Yiyuan Agriculture solar farm", "Phase": null, "Project Name in Local Language / Script": "山东省中振农业开发有 限公司农光互补发电项 目", "Other Name(s)": null, "Capacity (MW)": 89.0, "Capacity Rating": "unknown", "Technology Type": "PV", "Status": "pre-construction", "Start year": null, "Retired year": null, "Operator": "Shandong Zhongzhen Agricultural Development Co.", "Operator Name in Local Language / Script": "山东省中振农业开发 有限公司", "Owner": null, "Owner Name in Local Language / Script": null, "Hydrogen": null, "Latitude": 36.1333, "Longitude": 118.2617, "Location accuracy": "approximate", "Subregion": "Eastern Asia", "Region": "Asia", "GEM location ID": "L100001018760", "GEM phase ID": "G100001021026", "Other IDs (location)": null, "Other IDs (unit/phase)": null, "Wiki URL": "https://www.gem.wiki/Shandong_Yiyuan_Agriculture_solar_farm", "Province": "山东", "Province_pinyin": "Shandong", "Province code": 37, "City": "淄博市", "City_pinyin": "Zibo", "City code": 3703, "County": "沂源县", "County_pinyin": "Yiyuan xian", "County code": 370323, "Township": "燕崖镇", "Township_pinyin": "yan ya zhen" }, "geometry": { "type": "Point", "coordinates": [ 118.2617, 36.1333 ] } },
{ "type": "Feature", "properties": { "Date Last Researched": "2024/04/17", "Country": "China", "Project Name": "Shandong Yiyuan Dazhangzhuang (Datang) solar farm", "Phase": null, "Project Name in Local Language / Script": "大唐东营发电有限公司大张庄镇农光互补光伏发电项目", "Other Name(s)": null, "Capacity (MW)": 60.0, "Capacity Rating": "unknown", "Technology Type": "PV", "Status": "pre-construction", "Start year": null, "Retired year": null, "Operator": "Datang Dongying Power Generation", "Operator Name in Local Language / Script": "大唐东营发电有限公司", "Owner": null, "Owner Name in Local Language / Script": null, "Hydrogen": null, "Latitude": 36.022, "Longitude": 118.0186, "Location accuracy": "approximate", "Subregion": "Eastern Asia", "Region": "Asia", "GEM location ID": "L100000827227", "GEM phase ID": "G100000830693", "Other IDs (location)": null, "Other IDs (unit/phase)": null, "Wiki URL": "https://www.gem.wiki/Shandong_Yiyuan_Dazhangzhuang_(Datang)_solar_farm", "Province": "山东", "Province_pinyin": "Shandong", "Province code": 37, "City": "淄博市", "City_pinyin": "Zibo", "City code": 3703, "County": "沂源县", "County_pinyin": "Yiyuan xian", "County code": 370323, "Township": "大张庄镇", "Township_pinyin": "da zhang zhuang zhen" }, "geometry": { "type": "Point", "coordinates": [ 118.0186, 36.022 ] } },
{ "type": "Feature", "properties": { "Date Last Researched": "2022/03/01", "Country": "China", "Project Name": "Shandong Yiyuan Dazhangzhuangzhen solar farm", "Phase": null, "Project Name in Local Language / Script": "沂源中能华辰新能源有限公司大张庄镇30兆瓦地面光伏发电项目", "Other Name(s)": "宋家华辰光伏电站", "Capacity (MW)": 20.0, "Capacity Rating": "unknown", "Technology Type": "PV", "Status": "operating", "Start year": 2017.0, "Retired year": null, "Operator": "Yiyuan Zhongneng Huachen New Energy", "Operator Name in Local Language / Script": "沂源中能华辰新能源有限公司", "Owner": "East Group Co Ltd", "Owner Name in Local Language / Script": "易事特集团股份有限公司", "Hydrogen": null, "Latitude": 36.0874, "Longitude": 117.9844, "Location accuracy": "exact", "Subregion": "Eastern Asia", "Region": "Asia", "GEM location ID": "L100000803754", "GEM phase ID": "G100000804299", "Other IDs (location)": null, "Other IDs (unit/phase)": null, "Wiki URL": "https://www.gem.wiki/Shandong_Yiyuan_Dazhangzhuangzhen_solar_farm", "Province": "山东", "Province_pinyin": "Shandong", "Province code": 37, "City": "淄博市", "City_pinyin": "Zibo", "City code": 3703, "County": "沂源县", "County_pinyin": "Yiyuan xian", "County code": 370323, "Township": "大张庄镇", "Township_pinyin": "da zhang zhuang zhen" }, "geometry": { "type": "Point", "coordinates": [ 117.9844, 36.0874 ] } },
{ "type": "Feature", "properties": { "Date Last Researched": "2024/07/10", "Country": "China", "Project Name": "Shandong Yiyuan Dazhuangzhen solar farm", "Phase": null, "Project Name in Local Language / Script": "山东农发建设工程有限公司大张庄镇 50MW 农光互补光伏发电项目", "Other Name(s)": null, "Capacity (MW)": 50.0, "Capacity Rating": "unknown", "Technology Type": "PV", "Status": "pre-construction", "Start year": null, "Retired year": null, "Operator": "Shandong Agricultural Development Construction Engineering", "Operator Name in Local Language / Script": "山东农发建设工程有限公司", "Owner": null, "Owner Name in Local Language / Script": null, "Hydrogen": null, "Latitude": 36.021, "Longitude": 118.0184, "Location accuracy": "approximate", "Subregion": "Eastern Asia", "Region": "Asia", "GEM location ID": "L100001018637", "GEM phase ID": "G100001020850", "Other IDs (location)": null, "Other IDs (unit/phase)": null, "Wiki URL": "https://www.gem.wiki/Shandong_Yiyuan_Dazhuangzhen_solar_farm", "Province": "山东", "Province_pinyin": "Shandong", "Province code": 37, "City": "淄博市", "City_pinyin": "Zibo", "City code": 3703, "County": "沂源县", "County_pinyin": "Yiyuan xian", "County code": 370323, "Township": "大张庄镇", "Township_pinyin": "da zhang zhuang zhen" }, "geometry": { "type": "Point", "coordinates": [ 118.0184, 36.021 ] } },
{ "type": "Feature", "properties": { "Date Last Researched": "2022/03/01", "Country": "China", "Project Name": "Shandong Yiyuan Yanyazhen solar farm", "Phase": null, "Project Name in Local Language / Script": "沂源富翔光伏电力有限公司燕崖镇40兆瓦光伏发电项目A", "Other Name(s)": null, "Capacity (MW)": 20.0, "Capacity Rating": "unknown", "Technology Type": "PV", "Status": "operating", "Start year": 2016.0, "Retired year": null, "Operator": "Yiyuan Fuxiang Photovoltaic Power", "Operator Name in Local Language / Script": "沂源富翔光伏电力有限公司", "Owner": "Shandong Fuxiang Group Co Ltd", "Owner Name in Local Language / Script": "山东富翔集团有限公司", "Hydrogen": null, "Latitude": 36.1661, "Longitude": 118.2579, "Location accuracy": "approximate", "Subregion": "Eastern Asia", "Region": "Asia", "GEM location ID": "L100000803712", "GEM phase ID": "G100000804255", "Other IDs (location)": null, "Other IDs (unit/phase)": null, "Wiki URL": "https://www.gem.wiki/Shandong_Yiyuan_Yanyazhen_solar_farm", "Province": "山东", "Province_pinyin": "Shandong", "Province code": 37, "City": "淄博市", "City_pinyin": "Zibo", "City code": 3703, "County": "沂源县", "County_pinyin": "Yiyuan xian", "County code": 370323, "Township": "悦庄镇", "Township_pinyin": "yue zhuang zhen" }, "geometry": { "type": "Point", "coordinates": [ 118.2579, 36.1661 ] } },
{ "type": "Feature", "properties": { "Date Last Researched": "2025/01/02", "Country": "China", "Project Name": "Yunnan Lanping Lagushan solar farm", "Phase": null, "Project Name in Local Language / Script": "兰坪县拉古山光伏发电项目", "Other Name(s)": null, "Capacity (MW)": 110.0, "Capacity Rating": "unknown", "Technology Type": "PV", "Status": "construction", "Start year": 2025.0, "Retired year": null, "Operator": "Lanping Asia Pacific Huanyu Hydropower Development", "Operator Name in Local Language / Script": "兰坪亚太环宇水电发展有限公司", "Owner": null, "Owner Name in Local Language / Script": null, "Hydrogen": null, "Latitude": 26.3961, "Longitude": 99.078, "Location accuracy": "approximate", "Subregion": "Eastern Asia", "Region": "Asia", "GEM location ID": "L100001017960", "GEM phase ID": "G100001019949", "Other IDs (location)": null, "Other IDs (unit/phase)": null, "Wiki URL": "https://www.gem.wiki/Yunnan_Lanping_Lagushan_solar_farm", "Province": "云南", "Province_pinyin": "Yunnan", "Province code": 53, "City": "怒江傈僳族自治州", "City_pinyin": "Nujiang", "City code": 5333, "County": "兰坪白族普米族自治县", "County_pinyin": "Lanping baizu pumizu zizhixian", "County code": 533325, "Township": "营盘镇", "Township_pinyin": "ying pan zhen" }, "geometry": { "type": "Point", "coordinates": [ 99.078, 26.3961 ] } },
{ "type": "Feature", "properties": { "Date Last Researched": "2024/03/06", "Country": "China", "Project Name": "Ankang solar project", "Phase": null, "Project Name in Local Language / Script": "分布式光伏电站", "Other Name(s)": null, "Capacity (MW)": 1.0, "Capacity Rating": "unknown", "Technology Type": "PV", "Status": "operating", "Start year": 2017.0, "Retired year": null, "Operator": null, "Operator Name in Local Language / Script": null, "Owner": null, "Owner Name in Local Language / Script": null, "Hydrogen": null, "Latitude": 32.7065, "Longitude": 109.0178, "Location accuracy": "approximate", "Subregion": "Eastern Asia", "Region": "Asia", "GEM location ID": "L100001010716", "GEM phase ID": "G100001012088", "Other IDs (location)": null, "Other IDs (unit/phase)": null, "Wiki URL": "https://www.gem.wiki/Ankang_solar_project", "Province": "陕西", "Province_pinyin": "Shaanxi", "Province code": 61, "City": "安康市", "City_pinyin": "Ankang", "City code": 6109, "County": "汉滨区", "County_pinyin": "Hanbin qu", "County code": 610902, "Township": "江北街道", "Township_pinyin": "jiang bei jie dao" }, "geometry": { "type": "Point", "coordinates": [ 109.0178, 32.7065 ] } },
{ "type": "Feature", "properties": { "Date Last Researched": "2024/03/06", "Country": "China", "Project Name": "Cao demonstration solar project", "Phase": null, "Project Name in Local Language / Script": "曹县威肯科技工业园屋顶分布式并网发电示范项目", "Other Name(s)": null, "Capacity (MW)": 5.0, "Capacity Rating": "unknown", "Technology Type": "PV", "Status": "operating", "Start year": 2017.0, "Retired year": null, "Operator": null, "Operator Name in Local Language / Script": null, "Owner": null, "Owner Name in Local Language / Script": null, "Hydrogen": null, "Latitude": 34.8587, "Longitude": 115.5508, "Location accuracy": "approximate", "Subregion": "Eastern Asia", "Region": "Asia", "GEM location ID": "L100001010904", "GEM phase ID": "G100001012276", "Other IDs (location)": null, "Other IDs (unit/phase)": null, "Wiki URL": "https://www.gem.wiki/Cao_demonstration_solar_project", "Province": "山东", "Province_pinyin": "Shandong", "Province code": 37, "City": "菏泽市", "City_pinyin": "Heze", "City code": 3717, "County": "曹县", "County_pinyin": "Cao xian", "County code": 371721, "Township": "青菏街道", "Township_pinyin": "qing he jie dao" }, "geometry": { "type": "Point", "coordinates": [ 115.5508, 34.8587 ] } },
{ "type": "Feature", "properties": { "Date Last Researched": "2024/03/06", "Country": "China", "Project Name": "Daming County Degao Photovoltaic Power I solar project", "Phase": null, "Project Name in Local Language / Script": "大名县德高光伏电力有限公司", "Other Name(s)": null, "Capacity (MW)": 6.0, "Capacity Rating": "unknown", "Technology Type": "PV", "Status": "operating", "Start year": 2017.0, "Retired year": null, "Operator": null, "Operator Name in Local Language / Script": null, "Owner": null, "Owner Name in Local Language / Script": null, "Hydrogen": null, "Latitude": 36.29, "Longitude": 115.2416, "Location accuracy": "approximate", "Subregion": "Eastern Asia", "Region": "Asia", "GEM location ID": "L100001011311", "GEM phase ID": "G100001012684", "Other IDs (location)": null, "Other IDs (unit/phase)": null, "Wiki URL": "https://www.gem.wiki/Daming_County_Degao_Photovoltaic_Power_I_solar_project", "Province": "河北", "Province_pinyin": "Hebei", "Province code": 13, "City": "邯郸市", "City_pinyin": "Handan", "City code": 1304, "County": "大名县", "County_pinyin": "Daming xian", "County code": 130425, "Township": "大街乡", "Township_pinyin": "da jie xiang" }, "geometry": { "type": "Point", "coordinates": [ 115.2416, 36.29 ] } }
]
}
